Address,Latitude,Longitude,MapAddress,Name
"Plot No 15, St. No 17, Korang Town Extension-I",33.5782014,73.1393861,"Korang Town Rawalpindi, Islamabad, Islamabad Capital Territory, Pakistan",Trade Leaders
"Office No 5, Ist Floor Rose-1 Plaza, I-8 Markaz Islamabad",33.72296,73.08203999999999,"Ghousia Plaza, Jinnah Avenue, Blue Area, Islamabad, Pakistan, Pakistan",Amgomed
"Office No 6, 3rd Floor, Al-Jannat Arcade G-11 Markaz Islamabad",33.6678638,72.9983249,"Al-Jannat Arcade, Shabbir Sharif Road, G-11 Markaz G 11 Markaz G-11, Islamabad, Islamabad Capital Territory 44000, Pakistan",Seasons Pharmaceutical Distributors
Pharmacy PIMS Hospital Compound G-8/3,33.70296,73.04853,"G-8/3 G 8/3 G-8, Islamabad, Islamabad Capital Territory, Pakistan",Pharmax Pak (Pvt) Ltd
"Shop No G-8, Al-Habib Plaza, Ghouri Town, Phase-4-B",33.6256889,73.15325969999999,"Ghouri Town Phase Phase 7 Ghauri Town, Islamabad, Islamabad Capital Territory, Pakistan",Qamar Pharmacy
"Shop No 9, Al-Hameed Mall, Lower Ground Floor, G-11 Markaz Islamabad",33.669971,72.99943189999999,"Al Hameed Mall, G-11 Markaz G 11 Markaz G-11, Islamabad, Islamabad Capital Territory, Pakistan",Swat Pharmacy
"Shaheen Town, Main Shareefabad Road, Ghouri Town, Phase-5-A",33.6284214,73.1391008,"Ghori Town Rd, Islamabad, Islamabad Capital Territory, Pakistan",A.H. Pharmacy
"Plot No 3, St.3, A-Block Main Soan Avenue, Soan Garden Islamabad",33.5648708,73.1519259,"Soan Ave, Islamabad, Punjab, Pakistan",SMDC Pharmacy
"Lehtrar Road, Tarlai Kalan",33.6392212,73.1528123,"Lehtrar Road, Tarlai Kalan, Islamabad, Islamabad Capital Territory, Pakistan",Al-Hamza Medical Store
"Office No 2, Ist Floor Marble Plaza, I-9 Markaz Islamabad",33.6535043,73.0496866,"Marble Plaza, Potohar Rd, I-9 Markaz, I-9, I 9 Markaz I-9, Islamabad, Islamabad Capital Territory 44000, Pakistan",Medinex Distributor
"Fateh Jang Road, Benazir Chowk, Tarnol",33.6555905,72.9076669,"Tarnol, Islamabad, Islamabad Capital Territory, Pakistan",Shafaq Pharmacy
"Basement Hall No 3, Al-Hameed Centre, Sector G-11 Markaz Islamabad",33.6963277,73.01294639999999,"F-10 Markaz F 10/3 F-10, Islamabad, Islamabad Capital Territory, Pakistan",D.Watson Pharmacy
"Shop No 1, 2, & 3, Awami Trade Centre, Sector G-9 Markaz Islamabad",33.690286,73.030647,"Shop 1-3 , Awami Trade Center, G-9 Markaz, G 9 Markaz G-9, Islamabad, Islamabad Capital Territory 44000, Pakistan",D.Watson Pharmacy
"Seeri Sarial Shah Allah Ditta Road, D-13",33.6873701,72.95454769999999,"Shah Allah Ditta Rd, Islamabad, Islamabad Capital Territory, Pakistan",Shifa health Pharmacy
"Plot No 2-D, Bazar No 5, Shop No 6-G, Ground Floor, G-13/3 Islamabad",33.6844202,73.04788479999999,"Islamabad, Islamabad Capital Territory, Pakistan",Al-Shahid Pharmacy
"Plot No 5-N, St. 1, Industrial Area, I-10/3 Islamabad",33.6547752,73.0418481,"Street 1, I-10/3 I 10/3 I-10, Islamabad, Islamabad Capital Territory, Pakistan",UDL Distribution Pvt Limited
"Main Murree Road, Opp. Col Aman Ullah Road, Bhara kahu Islamabad",33.7366837,73.1744241,"Bhara Kahu, Islamabad, Islamabad Capital Territory, Pakistan",Universal Pharmacy
"Al-Fateh Departmental Store, Centaurs Centres Mall, Jinnah Avenue Blue Area",33.7179089,73.0716076,"Jinnah Ave, Blue Area, Islamabad, Islamabad Capital Territory, Pakistan",Al-Bari Pharmacy
"Saif Health Care, Shop No 103, Ist Floor, 2020-Kulsum Plaza, Blue Area",33.71824,73.07316,"Block E, Blue Area, G 6/2 Blue Area, Islamabad, Islamabad Capital Territory 44000, Pakistan",KIH Pharmacy
"Taj Plaza, F-8 Markaz Islamabad",33.7115769,73.0397898,"F-8 Markaz F 8 Markaz F-8, Islamabad, Islamabad Capital Territory, Pakistan",Bharia Pharmacy-II
Friends Arcade G-13/1 Islamabad,33.6439505,72.9588076,"G-13/1 G 13/1 G-13, Islamabad, Islamabad Capital Territory, Pakistan",Lioyds Pharmacy
"City Arcade, I-8 Markaz Islamabad",33.6688091,73.07554449999999,"City Arcade, Tipu Sultan Rd, I-8 Markaz, I-8, I 8 Markaz I-8, Islamabad, Islamabad Capital Territory 44000, Pakistan",Drug Source Pharmacy
"Col. Amanullah Road, Bhara kahu Islamabad",33.7449623,73.1762626,"Bhara Kahu, Islamabad, Islamabad Capital Territory, Pakistan",Paradize Medical Store
"Ground Floor, Golra more Islamabad",33.6251427,72.9734166,"Near Golra Morr، Peshawar Road، H-13, Islamabad, Rawalpindi, Islamabad Capital Territory, Pakistan",Quaid-e-Azam International Hospital Pharmacy
"4th Floor, Golra more Islamabad",33.6251427,72.9734166,"Near Golra Morr، Peshawar Road، H-13, Islamabad, Rawalpindi, Islamabad Capital Territory, Pakistan",Quaid-e-Azam International Hospital Pharmacy
Main Bani Gala Road,33.7251474,73.1649061,"Korang Rd, Islamabad, Islamabad Capital Territory, Pakistan",Hashir Pharmacy
"Main Bazar, Golra",33.6939092,72.97705909999999,"Golra E-11, Islamabad, Islamabad Capital Territory, Pakistan",Najeeb Medical Store
G-11 Markaz Islamabad,33.668435,72.9970134,"Shahnawaz Plaza Sachal Sarmast Road, G-11 Markaz G 11 Markaz G-11, Islamabad, Islamabad Capital Territory 44000, Pakistan",Al-Rehman Pharmacy
double road G-13/1 Islamabad,33.6450527,72.96356920000001,"Street 162, G-13/1 G 13/1 G-13, Islamabad, Islamabad Capital Territory, Pakistan",Rite Aid Pharmacy
G-8 Markaz Islamabad,33.699239,73.0486482,"Markaz Rd, G-8 Markaz G 8 Markaz G-8, Islamabad, Islamabad Capital Territory, Pakistan",Akram Pharmacy
G-8 Markaz Islamabad,33.6991305,73.04882529999999,"G-8 Markaz G 8 Markaz G-8, Islamabad, Islamabad Capital Territory, Pakistan",Ameer Pharmacy
"Ali Plaza, Bani Gala",33.7092132,73.1544184,"Abbasi Plaza، Jinnah Rd, Bani Gala, Islamabad, Islamabad Capital Territory, Pakistan",Ali Pharmacy
"OGDCL Medical Centre, F-8 Markaz Islamabad",33.71284,73.03782,"Park Rd, F-8 Markaz, F-8, Islamabad, ICT، Pakistan",Shifa Pharmacy
"OGDCL Health Office, Blue Area",33.7232097,73.0797317,"Jinnah Ave, F 6/1 Blue Area, Islamabad, Islamabad Capital Territory, Pakistan",Shifa Pharmacy
"Bharia Town, Phase-2",33.5581289,73.1208238,"Bahria Town Phase II Phase 2 Bahria Town, Rawalpindi, Punjab, Pakistan",Al-Zainab Pharmacy
"Jhangi Syeddan, Islamabad",33.61801,72.937375,"Jhangi Syedan, Islamabad, Islamabad Capital Territory, Pakistan",Ejaz Medical Store
Islamabad.,33.6901862,73.03165729999999,"Mehran Plaza, Rohtas Rd, G-9 Markaz, G-9, G 9 Markaz G-9, Islamabad, Islamabad Capital Territory 44090, Pakistan",Life Medical Store G-9 Markaz Islamabad
"Jawa Road, Rawat Islamabad",33.518083,73.23847889999999,"S1, national industrial estate, Rawat,, Rawat Industrial Estate, Islamabad, Rawalpindi, Islamabad Capital Territory, Pakistan",Saghar Pharmacy
"Madina Town, Ali Pur",31.4222252,73.1216833,"Madina Town, Faisalabad, Punjab, Pakistan",Mian G. Medical Store
G-8 Markaz Islamabad,33.6992078,73.0488306,"Allah Dad Plaza Markaz Rd, G-8 Markaz G 8 Markaz G-8, Islamabad, Islamabad Capital Territory 44000, Pakistan",Shaheen Pharmacy
"Main Bazar, G.T. Road, Rawat Islamabad",33.6844202,73.04788479999999,"Islamabad, Islamabad Capital Territory, Pakistan",Shahbaz Pharmacy
Golra More Islamabad,33.648484,73.04058429999999,"I-10 Markaz I 10 Markaz I-10, Islamabad, Islamabad Capital Territory, Pakistan",Care Plus Pharmacy
Margalla Town Islamabad,33.6693282,73.1061921,"Margalla Town, Orchard Scheme, Islamabad, Islamabad Capital Territory, Pakistan",Yousaf Zai Medical Store
Shahzad Town Islamabad,33.6725191,73.140303,"Shahzad Town, Islamabad, Islamabad Capital Territory, Pakistan",Capital Medical Store
Aabpara,33.7063825,73.086089,"Aabpara G 6/1 G-6, Islamabad, Islamabad Capital Territory, Pakistan",Zahid Medical Store
"Maroof International Hospital, F-10 Markaz Islamabad",33.6974922,73.01187420000001,"F10 Markaz, 10th Avenue، F 10/3 F-10, Islamabad, Islamabad Capital Territory, Pakistan",Maroof Pharmacy
Tarlai Kalan,33.6390593,73.1520788,"Lehtrar Rd, Dak Khana Stop, Tarlai Kalan, Tarlai Kalan, Islamabad, Islamabad Capital Territory 45550, Pakistan",Sarfraz Pharmacy
"Ground Floor, Golra more Islamabad",33.6251427,72.9734166,"Near Golra Morr، Peshawar Road، H-13, Islamabad, Rawalpindi, Islamabad Capital Territory, Pakistan",Quaid-e-Azam International Hospital
"Zeeshan Plaza, G-8 Markaz Islamabad",33.6992033,73.0485892,"Markaz Rd, G-8 Markaz G 8 Markaz G-8, Islamabad, Islamabad Capital Territory, Pakistan",Abbasi Pharmacy
G-11/2,1.8667661,102.9375802,"11, Jalan Seluang, Taman Banang, 83000 Batu Pahat, Johor, Malaysia",BDH Pharmacy
"Huma Plaza, Blue Area",33.7224116,73.08206249999999,"21-E, Huma Plaza (opposite Polyclinic), 87 East A.K. Fazl-ul-Haq Rd, G 6/2 Blue Area, Islamabad, Islamabad Capital Territory 44000, Pakistan",Federal Pharmacy
AN Arcade G-13/1 Islamabad,33.6430633,72.9524131,"Street 4, G-14/4 G 14/4 G-14, Islamabad, Islamabad Capital Territory, Pakistan",Health Pharmacy
"Murree Road, Bhara kahu Islamabad",33.7368351,73.1748884,"Murree Rd, Bhara Kahu, Islamabad, Islamabad Capital Territory, Pakistan",Gulzar Pharmacy
"Punjab Market, G-13/4",33.6504847,72.97124769999999,"Punjab Market, St 149, G-13-4, G-13, G 13/4 G-13, Islamabad, Islamabad Capital Territory 44220, Pakistan",Mediway Pharmacy
G-8 Markaz Islamabad,33.6315646,72.9226649,"Kazz Arcade, Jammu & Kashmir Housing Society G 15 Markaz G-15, Islamabad, Islamabad Capital Territory, Pakistan",Kashmir Pharmacy
G-7/4,33.7056917,73.0793568,"Muhammad Mansha Yaad Rd, G-7/4 G 7/4 G-7, Islamabad, Islamabad Capital Territory, Pakistan",Islamic International Dental Hospital Medical Store
I-10/3 Islamabad,33.709525,73.041583,"Kaghan Road, F-8/3, F 8/4 F-8, Islamabad, Islamabad Capital Territory 44000, Pakistan",Drug Services
"Jawa Road, Rawat Islamabad",33.4962757,73.19340629999999,"Jawa Rd, Rawat, Islamabad, Islamabad Capital Territory, Pakistan",New Ali Pharmacy
G-8 Markaz Islamabad,33.6992033,73.0485892,"Markaz Rd, G-8 Markaz G 8 Markaz G-8, Islamabad, Islamabad Capital Territory, Pakistan",J. Sariya Medical Store
"Super Market, F-6 Markaz Islamabad",33.72982,73.075307,"F-6 Markaz F 6 Markaz F-6, Islamabad, Islamabad Capital Territory, Pakistan",Medi Plus Pharmacy
"Near Mari Gas Building, G-10/4",33.6784462,73.0213414,"G-10/4 G-10, Islamabad, Islamabad Capital Territory, Pakistan",Shifa Pharmacy
"Madina Market, F-8/2",33.7148603,73.03329529999999,"Madina Market Street 22, F-8/2 F 8/2 F-8, Islamabad, Islamabad Capital Territory 44000, Pakistan",Surgical Medical Store
Sector E-11/3,33.70308,72.97892999999999,"Paris Arcade, E-11/3 Markaz, MPCHS E 11/2 E-11, Islamabad, Islamabad Capital Territory 44000, Pakistan",Najeeb Pharmacy
"Family Health Hospital, I-10/4",33.64938,73.04683,"Street 30C, I-10/4 I 10/4 I-10, Islamabad, Islamabad Capital Territory, Pakistan",Malik Traders Pharmacy
"Jinnah Arcade, Sector G-13/2",33.6537971,72.958174,"St 37, G-13-2, G-13, G 13/2 G-13, Islamabad, Islamabad Capital Territory 44220, Pakistan",MHK Pharmacy
Aabpara Market,33.7077138,73.08867719999999,"699 Khayaban-e-Suhrwardy, Aabpara G 6/1 G-6, Islamabad, Islamabad Capital Territory, Pakistan",Bharia Pharmacy-III
Golra Sharif,33.6939092,72.97705909999999,"Golra E-11, Islamabad, Islamabad Capital Territory, Pakistan",Ghousia Medical Store
Memorial Hospital Ali Pur Islamabad,33.6453938,73.1743498,"Lehtrar Rd، Ali Pur, Islamabad, Islamabad Capital Territory 44000, Pakistan",Begum Jan Pharmacy
"NORI Hospital, G-8/3",33.6991076,73.05337639999999,"Hanna Road, G-8/3، G 8/3 G-8, Islamabad, Islamabad Capital Territory, Pakistan",Noori Patients Welfare Society Pharmacy
"Ahmed Town, Bhara kahu Islamabad",33.7396199,73.17994639999999,"Murree Rd, Athal Chowk, Barakahu, Bhara Kahu, Islamabad, Islamabad Capital Territory 44000, Pakistan",The District Medical Store
"Millinum Plaza, G-15 Markaz Islamabad",33.6322891,72.9228021,"G-15 Markaz G 15 Markaz G-15, Islamabad, Islamabad Capital Territory, Pakistan",Shafi Pharmacy
"Jawa Road, Rawat Islamabad",33.4963513,73.193648,"Ch Sabir Market, Jawa Rd, Rawat, Islamabad, Islamabad Capital Territory 45900, Pakistan",New Makkah Medical Store
"Phulgran Stop, Murree Express Way",33.7819338,73.2597146,"Rawalpindi, Punjab, Pakistan",The Diabetes Centre Pharmacy
"Near Sabzi Mandi, I-11/4",33.6372075,73.0324567,"M&P Islamabad Depot Plot # 8, I-11/4، Sabzi Mandi Rd, I 11/4 I-11, Islamabad, Islamabad Capital Territory, Pakistan",Muller & Phipps Pakistan Pvt Ltd
F-10 Markaz Islamabad,33.6963277,73.01294639999999,"F-10 Markaz F 10/3 F-10, Islamabad, Islamabad Capital Territory, Pakistan",D. Watson Chemist
I-8 Markaz Islamabad,33.6673258,73.0752199,"Time Square Plaza, I-8 Markaz I-8, Islamabad, Islamabad Capital Territory, Pakistan",Pharmacons Pharmacy
"Fateh jang Road, Tarnol",33.5672929,72.6505957,"Fateh Jang, Attock, Punjab, Pakistan",Rahim Medical Store
"Kiran Plaza, F-8 Markaz Islamabad",33.7110178,73.04147259999999,"Kiran Plaza, Ground Floor, Plot 13-A, F-8 Markaz, F-8, Islamabad, ICT, Pakistan",Islamabad Specialist Clinic Pharmacy
"Hajvery Plaza, Blue Area",33.7232169,73.0825497,"Hajveri Plaza, Shop 3, 22/B, Jinnah Ave, Block B, Blue Area, G 6/3 Blue Area, Islamabad, Islamabad Capital Territory 44000, Pakistan",Four Star Pharmacy
"Main Murree Road, Bhara kahu Islamabad",33.741531,73.1832415,"N-75, Bhara Kahu, Islamabad, Islamabad Capital Territory, Pakistan",D. Watson Pharmacy
Sector I-10/3 Islamabad,33.650297,73.03831,"Plot # 142, Street # 09, I/10-3, I 10/3 I-10, Islamabad, Islamabad Capital Territory 44000, Pakistan",D.S. Pharma Distributor
"Murree Road, Bhara kahu Islamabad",33.741531,73.1832415,"N-75, Bhara Kahu, Islamabad, Islamabad Capital Territory, Pakistan",Amin Pharmacy
"Allah Dad, G-8 Markaz Islamabad",33.6992033,73.0485892,"Markaz Rd, G-8 Markaz G 8 Markaz G-8, Islamabad, Islamabad Capital Territory, Pakistan",Waheed Pharmacy
"I & T Centre, G-9/4 Islamabad",33.6860674,73.04511839999999,"Street 55, G-9/4 G 9/4 G-9, Islamabad, Islamabad Capital Territory, Pakistan",Elixir Medical Store
"Block-7 G-6 Main Civic Centre, Melody Market",33.7169396,73.0851668,"G-6 Markaz G 6 Markaz G-6, Islamabad, Islamabad Capital Territory, Pakistan",Truworth Distributor
"Benazir Chowk, Fateh Jang Road, Tarnol",33.6555905,72.9076669,"Tarnol, Islamabad, Islamabad Capital Territory, Pakistan",Haris Medical Store
Madina Pharmacy,41.1083433,29.0338172,"Reşitpaşa Mahallesi, ARI 2 Teknokent Binası,, İTÜ Ayazağa Kampüsü D:4, 34467 Sarıyer/İstanbul, Turkey",Arneca International Distributor
"Al-Nafees Hospital, Ali Pur farash Islamabad",33.6844202,73.04788479999999,"Islamabad, Islamabad Capital Territory, Pakistan",Omar Pharmacy
61-Jinnah Avenue,33.7191444,73.07328559999999,"Jinnah Ave, Islamabad, Islamabad Capital Territory, Pakistan",Islamabad Clinic Servicing Infertile Couples Pvt Ltd Pharmacy
"Shop No 5,  Pervaiz Plaza, G-6/1-1",33.7091231,73.0835367,"16 Street 48, G-6/1 G 6/1 G-6, Islamabad, Islamabad Capital Territory, Pakistan",BaB Medical Store
"Sector-J, DHA Phase-II",33.5348727,73.1708822,"Sector G Sector J DHA Phase II, Islamabad, Islamabad Capital Territory, Pakistan",Yashfi Pharmacy
Sector E-11/2,33.6993751,72.9741767,"Street 43، SCHS E 11/2 E-11, Islamabad, Islamabad Capital Territory, Pakistan",Redx Pharmacy
"Trammari Chowk, Tarlai",33.6424851,73.13363199999999,"Java Rd, Burma Town, Islamabad, Islamabad Capital Territory, Pakistan",Anum Medical Store
"Gondal Plaza, Fazal-e-Haq Road Islamabad",33.7091039,73.05608269999999,"Block I, Blue Area, Islamabad, ICT, Pakistan",Talha Medical Store
I-10/3 Islamabad,33.6537916,73.03905189999999,"I-10/3 I-10, Islamabad, Islamabad Capital Territory, Pakistan",Premier Agencies Distributor
"Shaheen Market, I-10/1 Islamabad",33.6432774,73.0412195,"Sector I-10/1 I 10/1 I-10, Islamabad, Islamabad Capital Territory, Pakistan",Star Medical Store
"Dherik Mohri, Near Golra Railway Station",33.6705685,72.9476309,"Golra Rd, Islamabad, Islamabad Capital Territory, Pakistan",Ch. Brothers Medical Store
"Gondal Plaza, Blue Area",33.7091039,73.05608269999999,"Block I, Blue Area, Islamabad, ICT, Pakistan",City Medical Store
"Korang Shopping Centre, Korang Islamabd",33.647337,73.037523,"Korang Road, I-10, Islamabad, Islamabad Capital Territory, Pakistan",Korang Medical Store
"I & T Centre, G-9/4 Islamabad",33.684839,73.0428517,"Nishtar Market, St 55, G-9-4, G-9, G 9/4 G-9, Islamabad, Islamabad Capital Territory 44090, Pakistan",Khalid Medical Store
Margalla Town Islamabad,33.670764,73.105404,"33.670764,73.105404, Pakistan",Amin Medical Store
"Sharjah Centre, Sector G-10 Markaz Islamabad",25.3462553,55.4209317,Sharjah - United Arab Emirates,Lifetec Distributor
"Murree Road, Bhara kahu Islamabad",33.74156960000001,73.18315890000001,"Murree Road, Bhara Kahu, Islamabad, Islamabad Capital Territory, Pakistan",Nazir Medical Store
Khanna Pull,33.6292743,73.1134983,"Khanna Pul, Khanna Rawalpindi, Islamabad Capital Territory, Pakistan",Al-Barkah Medical Store
"I&T Centre, G-9/4 Islamabad",33.6856724,73.0445639,"Nishtar Market, Plot 21/1, St 55, G-9-4, G-9, G 9/4 G-9, Islamabad, Islamabad Capital Territory 44090, Pakistan",Umer Medical Store
"Main Blue Ward, Ghouri Town, Phase-5",33.6284214,73.1391008,"Ghori Town Rd, Islamabad, Islamabad Capital Territory, Pakistan",Your’s Pharmacy
"Rehmat Centre, I-8 Markaz Islamabad",33.66649,73.07571999999999,"I-8 Markaz, Tipu Sultan Rd, I-8 Markaz, I-8, Islamabad, ICT, Pakistan",Spidel International Distributors
"School Road, Super Market, F-6",33.729703,73.0753651,"School Rd, F-6 Markaz F 6 Markaz F-6, Islamabad, Islamabad Capital Territory 44000, Pakistan",Shaheen Pharmacy
"Margalla Town, Phase-I",33.6693282,73.1061921,"Margalla Town, Orchard Scheme, Islamabad, Islamabad Capital Territory, Pakistan",GKB Distribuor
"Rana Market, F-7/2",33.7213293,73.0515184,"F-7/2 F 7/2 F-7, Islamabad, Islamabad Capital Territory, Pakistan",Dewash Medical Store
"Bhera Pull, Bhara kahu Islamabad",32.4770072,72.91357339999999,"Bhera, Sargodha, Punjab, Pakistan",Galyat Medical Store
Sector G-12,31.4522476,74.3167481,"Bilal Medical Store, Somi Centre Road, Sector A2 Block 4 Sector A 2 Township, Lahore, Punjab, Pakistan",Sheraz Medical Store
I-9 Markaz Islamabad,33.6537148,73.05058489999999,"I-9 Markaz I 9 Markaz I-9, Islamabad, Islamabad Capital Territory, Pakistan",Islamabad Pharmacy
I-10/3 Islamabad,33.6537916,73.03905189999999,"I-10/3 I-10, Islamabad, Islamabad Capital Territory, Pakistan",Vety Care (Pvt) Ltd Distributors
"Sitara Market, G-7 Markaz Islamabad",33.705017,73.06791290000001,"Sitara Market، G 7 Markaz G-7, Islamabad, Islamabad Capital Territory, Pakistan",Kazim Medical Store
Jinnah Avenue Centurus Shopping Mall F-8/1 Islamabad,33.7073674,73.0492028,"The Centaurus Mall, Jinnah Avenue, F 8/4 F-8, Islamabad, Islamabad Capital Territory, Pakistan",Nelson Pharmacy
"Patiala Centre, Blue Area",33.70885980000001,73.0555516,"Din Pavallions Plaza, Jinnah Ave, Block I, Blue Area, G 7/2 Blue Area, Islamabad, Islamabad Capital Territory 44000, Pakistan",Shaheen Pharmacy
"School Road, F-6 Super market",33.72982,73.075307,"F-6 Markaz F 6 Markaz F-6, Islamabad, Islamabad Capital Territory, Pakistan",D. Watson Pharmacy
"Panther Plaza, F-8 Markaz Islamabad",33.711718,73.0408903,"Plot 16-B, Kohistan Rd, F-8 Markaz, F-8, Islamabad, ICT, Pakistan",New Islamabad Pharmacy
"I & T Centre, G-9/4 Islamabad",33.68393,73.04145,"G-9-4, G-9, Islamabad, ICT, Pakistan",Al-Muslim Pharmacy
Golra Railway Station,33.6705685,72.9476309,"Golra Rd, Islamabad, Islamabad Capital Territory, Pakistan",Adil Medical Store
Tarlai Kalan,33.6424851,73.13363199999999,"Java Rd, Burma Town, Islamabad, Islamabad Capital Territory, Pakistan",Al-Khizer Medical Store
Tarlai Kalan,33.6393616,73.1527368,"Lehtrar Rd, Dak Khana Stop, Tarlai Kalan, Tarlai Kalan, Islamabad, Islamabad Capital Territory 45550, Pakistan",Awan Medical Store
"Muhammadia Plaza, Main Civic Centre, Melody Market",33.7169396,73.0851668,"G-6 Markaz G 6 Markaz G-6, Islamabad, Islamabad Capital Territory, Pakistan",Saif Pharmacy
"Raja Farman Ali Road, Khanna Dak Islamabad",33.6844202,73.04788479999999,"Islamabad, Islamabad Capital Territory, Pakistan",Al-Siddique Distributor
"Ali Plaza, I-10 Markaz Islamabad",33.6458304,73.035342,"Fatima Plaza, Sohni Rd, I-10-1 Markaz, I-10, I 10 Markaz I-10, Islamabad, Islamabad Capital Territory 44000, Pakistan",Safe Medical Store
I-9 Markaz Islamabad,33.6566613,73.0558388,"I-9 Markaz I 9 Markaz I-9, Islamabad, Islamabad Capital Territory, Pakistan",Danish Pharmacy
"Rupail Plaza, I-10 Markaz Islamabad",33.6464374,73.0367686,"Mundair Palace, Korang Rd, I-10-1 Markaz, I-10, I 10 Markaz I-10, Islamabad, Islamabad Capital Territory 44000, Pakistan",Medicare Medical Store
"KRL Flat, Peshawar Road, Jhangi Syedan",33.6271796,72.946047,"Peshawar Rd, Jhangi Syedian, Jhangi Syedan, Islamabad, Islamabad Capital Territory, Pakistan",Talha Medical Store
"Simli Dam Road, Bhara kahu Islamabad",33.7387187,73.18576209999999,"Simly Dam Road, Muslim Town Bhara Kahu, Islamabad, Islamabad Capital Territory, Pakistan",New Health Care Pharmacy
"Bewal Market, G-9 Markaz Islamabad",33.6897639,73.0332779,"Bewal Market, Block 24, Mangla Rd, G-9 Markaz, G-9, G 9 Markaz G-9, Islamabad, Islamabad Capital Territory 44090, Pakistan",Adnan Medical Store
"Burma Town, Near Khanna Dak Islamabad",33.6351713,73.1325853,"Lehtrar Road, Burma Town, Islamabad, Islamabad Capital Territory, Pakistan",Al-Makkah Pharmacy
Akber Hospital Tarnol,33.6555905,72.9076669,"Tarnol, Islamabad, Islamabad Capital Territory, Pakistan",Akber Medical Store
"FGH, Chak Shahzad",33.6616936,73.14381159999999,"Chak Shahzad, Islamabad, Islamabad Capital Territory, Pakistan",Al-Salah Fair Price Pharmacy
"NIH Market, Chak Shahzad",33.6616936,73.14381159999999,"Chak Shahzad, Islamabad, Islamabad Capital Territory, Pakistan",Waleed Medical Store
"Khyber Plaza, Blue Area",33.70884,73.05583,"AK Fazal-ul-Haq Rd, Block I, Blue Area, Islamabad, ICT, Pakistan",Delight Medical Store
"Ground Floor, Rajgan, T. Chowk, Rawat Islamabad",33.6844202,73.04788479999999,"Islamabad, Islamabad Capital Territory, Pakistan",Imperative Life Care Services
Sngjani,33.6746148,72.8482247,"Sangjani, Islamabad, Islamabad Capital Territory, Pakistan",Zeeshan Medical Store
"Mushtaq Mansion, Blue Area",33.7211874,73.07974039999999,"Mushtaq Mansion Service Road,، A.K.M. Fazl-ul-Haq Road, G 6/2 Blue Area, Islamabad, Islamabad Capital Territory, Pakistan",Al-Habib Pharmacy
I-10/3 Islamabad,33.6562966,73.03726429999999,"I-10/3 I 10/3 I-10, Islamabad, Islamabad Capital Territory, Pakistan",Ali Gohar & Company (Pvt) Ltd
Railway Crossing Tarnol,33.6856724,73.0445639,"Nishtar Market, Plot 21/1, St 55, G-9-4, G-9, G 9/4 G-9, Islamabad, Islamabad Capital Territory 44090, Pakistan",Umer Medical Store
I-10/2,33.6502212,73.0323787,"Rajput Market, St 1, I-10-2, I-10, I 10/2 I-10, Islamabad, Islamabad Capital Territory 46000, Pakistan",Al-Fateh Medical Store
I-10/3 Islamabad,33.6546268,73.0389541,"Street 3, Polt 31, Sector I-10 /3، I 10/3 I-10, Islamabad, Islamabad Capital Territory, Pakistan",Novartis Pharmacy Pakistan
Karachi Company G-9 Markaz Islamabad,33.6887024,73.03280819999999,"G-9 Markaz G 9 Markaz G-9, Islamabad, Islamabad Capital Territory, Pakistan",Al-Faiz Medical Store
I-8 Markaz Islamabad,33.6688091,73.07554449999999,"City Arcade, Tipu Sultan Rd, I-8 Markaz, I-8, I 8 Markaz I-8, Islamabad, Islamabad Capital Territory 44000, Pakistan",The Drug Source Distributor
"Main G.T. Road, Sangjani",33.675945,72.853314,"جی ٹی روڈ sangjani، Islamabad, Islamabad Capital Territory, Pakistan",Al-Falah Pharmacy
Babu Jee Shopping Mall Golra Sharif,33.6939092,72.97705909999999,"Golra E-11, Islamabad, Islamabad Capital Territory, Pakistan",Health One Pharmacy
"I&T Centre, Peshawar More, G-9/4 Islamabad",33.685749,73.04468729999999,"Nishtar Market, Shop 5, Block 17, St 55, G-9-4, G-9, G 9/4 G-9, Islamabad, Islamabad Capital Territory 44090, Pakistan",Tahir Medical Store
Model Town Hummak,33.6134848,73.0600208,"B-327, Iqbal Rd, Raja Bazar, Committe Chowk, Rawalpindi, Punjab 46000, Pakistan",Haji Medicine Co. Distributor
"Bismillah Plaza, G-8 Markaz Islamabad",33.6953876,73.0510113,"Pak media foundation plaza near alrasheed masjjid and utility store G-8 markaz، G 8 Markaz G-8, Islamabad, Islamabad Capital Territory, Pakistan",Unique Medical Store
I-9/3 Islamabad,33.66108,73.05875999999999,"I-9-3, I-9, Islamabad, ICT, Pakistan",Pharmanet Distributor
VIP Ghouri Town Islamabad,33.6266202,73.11997389999999,"Ghouri Town VIP Block Ghauri Town VIP Block Khanna, Islamabad, Islamabad Capital Territory, Pakistan",New Kamran Medical Store
"Hassan Arcade, F-11 Markaz Islamabad",33.6833491,72.9888739,"F-11 Markaz F 11 Markaz F-11, Islamabad, Islamabad Capital Territory, Pakistan",Shaheen Pharmacy
I-8 Mughal Market,33.6614954,73.0667037,"Mughal Market, Service Rd, I-8-1, I-8, I 8/1 I-8, Islamabad, Islamabad Capital Territory 44000, Pakistan",Al-Hafeez Medical Store
Industrial Triangle Kahuta Road,33.54596000000001,73.14471999999999,"Humak Town, Islamabad, ICT, Pakistan",Global Pharmaceuticals Pvt Ltd Distributors
Athal Chowk Barkau,33.7275236,73.226405,"Athal, Islamabad, Islamabad Capital Territory, Pakistan",Abbasi Medical Store
"Al-Baber Centre, F-8 Markaz Islamabad",33.7115769,73.0397898,"F-8 Markaz F 8 Markaz F-8, Islamabad, Islamabad Capital Territory, Pakistan",Lifeaid Pharmacy
Main Road Pak PWD Housing Lihi Bher Islamabad.,33.5708699,73.1452867,"PWD Housing Society Rawalpindi, Punjab, Pakistan",Hassan Pharmacy
"Rehmat Plaza, I-10 Markaz Islamabad",33.6466885,73.03717879999999,"Rehmat Plaza, Sohni Rd, I-10 Markaz, I-10, I 10 Markaz I-10, Islamabad, Islamabad Capital Territory 44000, Pakistan",Al-Haram Medical Store
Bani Gala,33.7122378,73.1612928,"Rajput St, Bani Gala, Islamabad, Islamabad Capital Territory 44000, Pakistan",Rajput Pharmacy
"Tarammri Chowk, Irfan Abad, Tarlai",33.6424851,73.13363199999999,"Java Rd, Burma Town, Islamabad, Islamabad Capital Territory, Pakistan",M.S. Pharmacy
Shahnawaz G-11 Markaz Islamabad,33.6684673,72.997131,"Shah Nawaz Plaza, Shop 4, Plot 11, Sachal Sarmast Rd, G-11 Markaz, G-11, G 11 Markaz G-11, Islamabad, Islamabad Capital Territory 44000, Pakistan",Al-Amin Pharmacy
"Bostan Plaza, Bani Gala",33.7130441,73.1615127,"Bani Gala, Rawalpindi, Islamabad Capital Territory, Pakistan",Eman Medical Store
F-11/2,33.682864,72.980684,"147 Street 20, F-11/2 F 11/2 F-11, Islamabad, Islamabad Capital Territory, Pakistan",Roche Pakistan Limited
"Al-Habib Main Murree Road, Bhara kahu Islamabad",33.7405438,73.1810247,"Murree Rd, Bhara Kahu, Islamabad, Islamabad Capital Territory, Pakistan",Umer Medical Store
"Iqbal Town, Service Road",31.513981,74.2854199,"Allama Iqbal Town, Lahore, Punjab, Pakistan",Al-Rehman Medical Store
"Near Jamia Masjid Al-Rehman, Blue Area",33.7223,73.08095,"Jinnah Ave, Block C, Blue Area, Islamabad, ICT, Pakistan",Blue Area Medical Store
I-9/3 Islamabad,33.6609779,73.054762,"I-9/3 I 9/3 I-9, Islamabad, Islamabad Capital Territory, Pakistan",Promed Distributors
"Awan Plaza, Sector G-8 Markaz Islamabad",33.699466,73.049318,"Suite # 6, 2nd Floor, Awan Plaza, G-8 Markaz, G 8 Markaz G-8, Islamabad, Islamabad Capital Territory 44000, Pakistan",Pakistan Pharmacy
"Kashif Plaza, G-8 Markaz Islamabad",33.6953682,73.0503914,"Nisar Plaza, G-8 Markaz, G-8, G 8 Markaz G-8, Islamabad, Islamabad Capital Territory 44000, Pakistan",A.S.M. Pharmaceuticals Distribution
Sector G-12 Islamabad.,33.6601929,72.97853529999999,"G-12, Islamabad, Islamabad Capital Territory, Pakistan",Saalim Medical Store
"I&T Centre, G-10/1 Islamabad",33.669752,73.01442279999999,"Service Rd W, G-10/1 G 10/1 G-10, Islamabad, Islamabad Capital Territory, Pakistan",Memon Medical Store
"Salman Market, F-11/2",33.6826482,72.9806217,"St 24, F-11-2, F-11, Islamabad, ICT، Pakistan",Healing Medical Store
"Jinnah Super Market, F-7 Markaz Islamabad",33.7211528,73.0575267,"Opposite To Flower Market، College Road، F 7 Markaz F-7, Islamabad, Islamabad Capital Territory, Pakistan",Legal Pharmacy
F-8 Markaz Islamabad,33.7105372,73.0420472,"Kohistan Road، F8-Markaz، Islamabad, Pakistan",Ali Pharmacy Inaptient Pharmacy
PWD Housing Society,33.5743339,73.1508558,"PWD Double Rd, PWD Housing Society Sector D PWD Society, Rawalpindi, Islamabad, Punjab, Pakistan",Shifa Pharmacy
"Power Market, Sector G-10/4",33.6784462,73.0213414,"G-10/4 G-10, Islamabad, Islamabad Capital Territory, Pakistan",Waqar Medical Store
"Jannat Arcade, G-11 Markaz Islamabad",33.6678638,72.9983249,"Al-Jannat Arcade, Shabbir Sharif Road, G-11 Markaz G 11 Markaz G-11, Islamabad, Islamabad Capital Territory 44000, Pakistan",Mustafa Medical Store
"Basement Asad Plaza, Lehtrar Road, Khanna Pull",33.6295271,73.1164162,"Asad Plaza, Lehtrar Rd, Khanna Dak, Bilal Town Khanna, Islamabad, Islamabad Capital Territory 44000, Pakistan",Harmain Pharmacy
"Jawa Road, Rawat Islamabad",33.4962757,73.19340629999999,"Jawa Rd, Rawat, Islamabad, Islamabad Capital Territory, Pakistan",Khurram Medical Store
"near Police Station Fateh Jang Road, Tarnol",33.6555905,72.9076669,"Tarnol, Islamabad, Islamabad Capital Territory, Pakistan",Kashmir Medical Store
"Fateh Jang Road, Tarnol",33.5672929,72.6505957,"Fateh Jang, Attock, Punjab, Pakistan",Tamman Medical Store
"Sultan Plaza, Gani Gala",1.3033833,103.8612836,"Jln Sultan, Singapore",Vigilant Veterinary Services (Pvt) Limited
"Fazal-e-Haq Road, Ratta Mansion Plaza, Blue Area",33.7119962,73.0619818,"Ratta Mansion, AKM Fazal-ul-Haq Rd, Block H, Blue Area, G 7/2 Blue Area, Islamabad, Islamabad Capital Territory 44000, Pakistan",Islamabad Pharmacy
Kohsar Cinema Building G-7 Markaz Islamabad,33.705238,73.068145,"Shop # 1-2, Kohsar Cinema Building. G-7 Markaz, Sitara Market, Islamabad، G 7 Markaz G-7, Islamabad, Islamabad Capital Territory 44000, Pakistan",Kohsar Medical Store
Adjacement PIA Building Blue Area,33.7185,73.0742384,"PIA Building, 49، A.K. Fazl-ul-Haq Rd, Block E G 6/2 Blue Area, Islamabad, Islamabad Capital Territory 44000, Pakistan",Nostrum Pharma Distributor
"Zeeshan Plaza, G-8 Markaz Islamabad",33.6988957,73.049387,"Zeeshan Plaza, G-8 Markaz, G-8, G 8 Markaz G-8, Islamabad, Islamabad Capital Territory 44000, Pakistan",Capital Medical Store
E-11/3,33.7045092,72.9792561,"Shop 4, Block 14, E-11-3, E-11, MPCHS E 11/2 E-11, Islamabad, Islamabad Capital Territory 44000, Pakistan",Al-Madina Medical Store
Korang Town Islamabad,33.5759348,73.1326869,"Korang Town (Extension), Islamabad, Rawalpindi, Punjab, Pakistan",Al-Shifa Pharmacy
"Grond Floor, Select One Plaza, F-11 Markaz Islamabad",33.624677,72.9724735,"Arej Tower Shop No. 2-3 Near Jameel Sweets E-, H-13, Islamabad, Rawalpindi, Islamabad Capital Territory, Pakistan",Boots Pharmacy
"Islamabad Arcade, G-11 Markaz Islamabad",33.6694204,72.9987214,"Islamabad Arcade, G-11 Markaz, G-11, G 11 Markaz G-11, Islamabad, Islamabad Capital Territory 44000, Pakistan",Azam Trading Services
I-9/3 Islamabad,33.6617123,73.0567611,"I-9/3 I-9, Islamabad, Islamabad Capital Territory, Pakistan",United Distributor
"Sara Hospital, Simly Dam Road, Bhara kahu Islamabad",33.738482,73.18661569999999,"Simly Dam Road, Bhara Kahu, Islamabad, Islamabad Capital Territory, Pakistan",Sara Medical Store
"Jawa Road, Main Bazar, Rawat Islamabad",33.6844202,73.04788479999999,"Islamabad, Islamabad Capital Territory, Pakistan",Imran Medical Store
Main Commercial soan Garden Islamabad,33.563363,73.149794,"Main double road, Commercial Market, Soan Garden, Block D Soan Gardens, Islamabad, Punjab, Pakistan",Safeway Pharmacy
E-11/1 Islamabad,33.6453223,73.1752814,"Lehtrar Road, Ali Pur, Islamabad, Islamabad Capital Territory, Pakistan",Ali Medical Store
Express Way Koral Chowk,21.3890824,39.8579118,Mecca Saudi Arabia,Al-Makkah Medical Store
"12-M Plaza, G-8 Markaz Islamabad",33.697051,73.05125799999999,"Basement, 12M Square، G-8 Markaz، G 8 Markaz G-8, Islamabad, Islamabad Capital Territory 44000, Pakistan",Medicine Square Medical Store
"Wasif Plaza, Murree Road, Bhara kahu Islamabad",33.7392784,73.18267279999999,"Simly Rd, Barakahu, Islamabad, ICT, Pakistan",Manzoor Medical Store
"Near Noor Hospital, Fateh Jang Road, Tarnol",33.6555905,72.9076669,"Tarnol, Islamabad, Islamabad Capital Territory, Pakistan",Noor Pharmacy
"Shifa international hospital, H-8/4",33.6790023,73.0680138,"Pitras Bukhari Road, Sector H-8/4، H 8/4 H-8, Islamabad, Islamabad Capital Territory, Pakistan",Shifa International Distribution Services
G-9 Markaz Islamabad,33.6903224,73.0315495,"Chand Plaza, Rohtas Rd, G-9 Markaz, G-9, G 9 Markaz G-9, Islamabad, Islamabad Capital Territory 44090, Pakistan",New Medi Fair Medical Store
National Police Foundation 0-9 Islamabad.,33.5665034,73.13348529999999,"Police Foundation, Islamabad Capital Territory, Pakistan",IHGC Medical Store
"Main Murree Road, Bhara kahu Islamabad",33.7254831,73.1387783,"shop no,2 first floor skindar plaza oppsite Hbl bank main bhara kahu, Murree Rd, Maira, Islamabad, Islamabad Capital Territory, Pakistan",Bhara kahu Medical Store
"Ameen Plaza, Lehtrar Road",33.6297412,73.1172823,"Al-Amin Plaza, Lehtrar Rd, Khanna Dak, Bilal Town Khanna, Islamabad, Islamabad Capital Territory 44000, Pakistan",Umer Medical Store
"PAEC General Hospital, H-11/4",33.6522159,73.01580659999999,"Faqir Aipee Road, H-11/4 H 11/4 H-11, Islamabad, Islamabad Capital Territory 44000, Pakistan",PAEC Foundation Pharmacy
"Nai Abadi, Bhara kahu Islamabad",33.7489119,73.1851121,"Nai Abadi Bhara Kahu, Islamabad, Islamabad Capital Territory, Pakistan",Chinar Medical Store
"Awan Plaza, G-8 Markaz Islamabad",33.699466,73.049318,"Suite # 6, 2nd Floor, Awan Plaza, G-8 Markaz, G 8 Markaz G-8, Islamabad, Islamabad Capital Territory 44000, Pakistan",Dawn Pharmacy
"Maxim Arcade, Jeddah Town Islamabad",33.5193579,73.1525087,"Islamabad, Islamabad Capital Territory, Pakistan",Skyline Distributor
"VIP Ghouri Town, Khanna East",33.6206523,73.12030349999999,"Ghauri Town, Islamabad, Rawalpindi, Islamabad Capital Territory, Pakistan",Kamran & Sons Medical Store
"Simly Dam Road, Bhara kahu Islamabad",33.738194,73.1881789,"Simly Dam Road, Bhara Kahu, Islamabad, Islamabad Capital Territory, Pakistan",Bharakau Community Pharmacy
"Al-Amin Plaza, Lehtrar Road, Khanna Pul",33.6294743,73.1170233,"Lehtrar Road, Khanna Islamabad, Islamabad Capital Territory, Pakistan",Zaman Distributors
"Main G.T. Road, Tarnol",33.6514864,72.9091708,"Grand Trunk Rd, Tarnol, Islamabad, Islamabad Capital Territory, Pakistan",Adeel Medical Store
"Abdullah Market Lehtrar Road, Khanna Pull",33.6294743,73.1170233,"Lehtrar Road, Khanna Islamabad, Islamabad Capital Territory, Pakistan",Zahid Medical Store
"Rashid Arcade Main PWD Road, Pakistan Town Islamabad",33.5673609,73.137496,"Rashid Arcade, Main Double Road, PWD - Pakistan Town، Block A Police Foundation, Islamabad, Punjab 44000, Pakistan",Javed Pharmacy
Jinnah Avenue Blue Area,33.7087048,73.0559301,"Khyber Plaza, AK Fazal-ul-Haq Rd, Block I, Blue Area, Islamabad, ICT, Pakistan",Mubashir Medical Store
70-E Blue Area,33.7172931,73.07078,"Blue Area, Islamabad, Islamabad Capital Territory, Pakistan",Mubashir Medical Store
"Kazz Arcade, Sector G-15 Markaz Islamabad",33.6315646,72.9226649,"Kazz Arcade, Jammu & Kashmir Housing Society G 15 Markaz G-15, Islamabad, Islamabad Capital Territory, Pakistan",Zyan Pharmacy
Naval Complex E-8,33.6992078,73.0488306,"Allah Dad Plaza Markaz Rd, G-8 Markaz G 8 Markaz G-8, Islamabad, Islamabad Capital Territory 44000, Pakistan",Mr. Chemist Plus Medical Store
I-9/3 Islamabad,33.6617123,73.0567611,"I-9/3 I-9, Islamabad, Islamabad Capital Territory, Pakistan",Abbott Laboratories Pak Limited
"Fortune Arcade Phase-5, Bahria Town Islamabad",33.5578643,73.1355421,"Bahria Town Phase VI Phase 6 Bahria Town, Rawalpindi, Islamabad, Punjab, Pakistan",D. Watson Pharmacy
F-10 Markaz Islamabad,33.6974922,73.01187420000001,"F10 Markaz, 10th Avenue، F 10/3 F-10, Islamabad, Islamabad Capital Territory, Pakistan",In patient Pharmacy Maroof International hospital
Sohan Garden Housing Society,33.5652582,73.15226969999999,"Block B Soan Gardens, Islamabad, Islamabad Capital Territory, Pakistan",Medix Plus Medical Store
"21-E Huma Plaza, Blue Area",33.7220338,73.08126589999999,"Huma Plaza, Jinnah Ave, Block C, Blue Area, G 6/2 Blue Area, Islamabad, Islamabad Capital Territory 44000, Pakistan",S & j Distributors
"Inside Family Health Hospital, I-10/4",33.6496218,73.0467304,"G 115, I-10/4 I 10/4 I-10, Islamabad, Islamabad Capital Territory, Pakistan",Imran Pharmacy
"Aziz Market, I-9/1 Islamabad",33.4814722,73.0384585,"14 km adyala road near dhagal post office, Pakistan",Shaigan Pharmacy
"Sheraz Market, Sector G-10/3",33.68578910000001,73.0162678,"Street 1, G-10/3 G 10/3 G-10, Islamabad, Islamabad Capital Territory, Pakistan",Rahat Medical Store
"Kamran Shopping Centre, Aabpara Market",33.7078923,73.0895184,"Aabpara G 6/1 G-6, Islamabad, Islamabad Capital Territory, Pakistan",Malik Medical Store
"Sharjah Centre, G-10 Markaz Islamabad",25.3462553,55.4209317,Sharjah - United Arab Emirates,Medgate Services Pharmaceuticals Distributor
"Basement Hall No 3, 4, Time Square Plaza, F-11 Markaz Islamabad",33.6833772,72.9891169,"Hillal Rd, F-11 Markaz F 11 Markaz F-11, Islamabad, Islamabad Capital Territory, Pakistan",D. Watson Pharmacy
"Al-Huda Town Ahad Plaza, Lehtrar Road, Satra Meel",33.6433084,73.19902139999999,"Lehtrar Road, Al-Huda Town, Islamabad, Islamabad Capital Territory, Pakistan",Ahmed Medical Store
"Shop No 4, Mehran Plaza, G-9 Markaz Islamabad",33.6901893,73.031748,"Mehran Plaza, Rohtas Rd, G-9 Markaz, G-9, G 9 Markaz G-9, Islamabad, Islamabad Capital Territory 44090, Pakistan",Jamal Medical Store
"Near Sohan Union Council, Sohan Islamabad",33.6844202,73.04788479999999,"Islamabad, Islamabad Capital Territory, Pakistan",Al-Hamd Medical Store
Ibd.,33.6844202,73.04788479999999,"Islamabad, Islamabad Capital Territory, Pakistan",Islamabad Medical Complex Pharmacy Lehtrar Road
"G.T. Road, nar Tarnol Phattak",33.685749,73.04468729999999,"Nishtar Market, Shop 5, Block 17, St 55, G-9-4, G-9, G 9/4 G-9, Islamabad, Islamabad Capital Territory 44090, Pakistan",Tahir Medical Store
Sector G-8 Markaz Islamabad,33.6992033,73.0485892,"Markaz Rd, G-8 Markaz G 8 Markaz G-8, Islamabad, Islamabad Capital Territory, Pakistan",Doctor’s Pharmacy
"Jalal Arcade, Pakistan Town PWD",33.6318845,73.0717997,"Chandni Chowk Flyover, D Block، Block B Satellite Town, Rawalpindi, Punjab, Pakistan",Al-Latif Pharmacy
"Simly Dam Road, Bhara kahu Islamabad",33.738194,73.1881789,"Simly Dam Road, Bhara Kahu, Islamabad, Islamabad Capital Territory, Pakistan",Ghousia Medical Store
"Deen Arcade FECHS, Sector E-11/2",33.6988666,72.9689398,"F.E.C.H.S. E-11, Islamabad, Islamabad Capital Territory, Pakistan",A & K Pharmacy
"Main Lehtrar Road, Ali Pur farash Islamabad",33.6453223,73.1752814,"Lehtrar Road, Ali Pur, Islamabad, Islamabad Capital Territory, Pakistan",Gujar Khan Medical Store
Naear Patrol Pump G-8 Markaz Islamabad,33.6992033,73.0485892,"Markaz Rd, G-8 Markaz G 8 Markaz G-8, Islamabad, Islamabad Capital Territory, Pakistan",New Eman Medical Store
"Manzoor Plaza, G.T. Road, Rawat Islamabad",33.6844202,73.04788479999999,"Islamabad, Islamabad Capital Territory, Pakistan",Haroon Medical Store
"Kashif Plaza, Sector F-8 Markaz Islamabad",33.7104946,73.0390878,"Kashif Plaza, Shop 5, Block 4B, F-8 Markaz, F-8, Islamabad, ICT, Pakistan",Al-Noor Pharmacy
"Industrial Area, I-9",30.375321,69.34511599999999,Pakistan,Glaxosmithkline Pakistan Ltd
"Asif Plaza, Beewell Hospital, Fazal-e-Haq Road, B.A",33.710061,73.058341,"East Wing, 2nd Floor, Asif Plaza, A.K.M. Fazal-Ul-Haq Road, Blue Area، Pakistan",Beewell Pharmacy
"Oppt. Union Council, Simly Dam Road, Bhara kahu Islamabad",33.7373875,73.1864026,"Budh Bazar Rd, Bhara Kahu, Islamabad, Islamabad Capital Territory, Pakistan",Jainnah Pharmacy
"Shahnawaz Shopping Centre, F-8 Markaz Islamabad",33.7112505,73.03799219999999,"Shehnaz Plaza, Plot No 14-Y, Johar Rd, F-8 Markaz, F-8, Islamabad, ICT, Pakistan",Hameed Pharmacy
"Murree Road, Athal Chowk, Bhara kahu Islamabad",33.7405438,73.1810247,"Murree Rd, Bhara Kahu, Islamabad, Islamabad Capital Territory, Pakistan",Alpha Omega Integrated Services Distributor
Madina Town Bhara kahu Islamabad,33.7380556,73.1851121,"Bhara Kahu, Islamabad, Islamabad Capital Territory, Pakistan",Life Pharmacy
"Super Market, F-6 Market",33.7294979,73.0771618,"School Rd, F-6 Markaz, F-6, F 6 Markaz F-6, Islamabad, Islamabad Capital Territory 44000, Pakistan",Al-Kausar Pharmacy
"Fateh jang Road, Tarnol",33.6555905,72.9076669,"Tarnol, Islamabad, Islamabad Capital Territory, Pakistan",Khyber Hospital Medical Store
"Fatima Plaza, Near KRL Flats, Jhangi Syedan",33.6215077,72.94257759999999,"Fatima Plaza, Rehman Town Link Rd, Jhangi Syedian, Islamabad, Islamabad Capital Territory, Pakistan",Umair Medical Store
PWD Main 0-9,40.6794209,-73.86347030000002,"3404, 35 101st Ave, Brooklyn, NY 11208, United States",Al-Noor Pharmacy
"Al-Hayat Plaza, G-10 Markaz Islamabad",33.6755189,73.0140112,"G-10 Markaz G 10 Markaz G-10, Islamabad, Islamabad Capital Territory, Pakistan",Healer’s Pharmacy
"DHA-II, G.T. Road",31.8886915,74.2383901,"Grand Trunk Rd, Punjab, Pakistan",Sidara Pharmacy
"Qazi Plaza, Sector G-9 Markaz Islamabad",33.6856724,73.0445639,"Nishtar Market, Plot 21/1, St 55, G-9-4, G-9, G 9/4 G-9, Islamabad, Islamabad Capital Territory 44090, Pakistan",Sitara Medical Store
"Kiani Road, Bhara kahu Islamabad",33.755976,73.2100237,"Murree Rd, Bhara Kahu, Islamabad, Islamabad Capital Territory, Pakistan",Niazi Medical Store Ramzan Plaza
"River Garden, Main Highway Islamabad",33.55042299999999,73.168943,"River Gardens Housing Scheme, Islamabad, Islamabad Capital Territory, Pakistan",Nosh Pharmacy
"Al-Makkah Market, Rawat Islamabad",33.6844202,73.04788479999999,"Islamabad, Islamabad Capital Territory, Pakistan",Dawar Medical Store
"Khyber Plaza, Blue Area",33.70885980000001,73.0555516,"Din Pavallions Plaza, Jinnah Ave, Block I, Blue Area, G 7/2 Blue Area, Islamabad, Islamabad Capital Territory 44000, Pakistan",Shaheen Pharmacy
"Main Murree Road, Bhara kahu Islamabad",33.7397132,73.1799274,"Murree Rd, Athal Chowk, Barakahu, Islamabad, ICT, Pakistan",Sarwar Medical Store
"Shaheen Plaza, Khursheed Market, Sector F-10/1 Islamabad",33.645999,73.03535029999999,"Shaheen Plaza, Sohni Rd, I-10-1 Markaz, I-10, I 10 Markaz I-10, Islamabad, Islamabad Capital Territory 44000, Pakistan",IHS Pharmacy
"North Service Road, Sector I-9/2",33.6638136,73.0498492,"Service Rd N, I-9, Islamabad, Islamabad Capital Territory, Pakistan",S. Ejaz ud Din Co.
"Ist Floor, Plot No 276, I-9/3 Islamabad",33.6617123,73.0567611,"I-9/3 I-9, Islamabad, Islamabad Capital Territory, Pakistan",Hospital Supply Corporation Distributor
"Select Centre, F-11 Markaz Islamabad",33.6848245,72.9864961,"Hilal Road, F-11 Markaz F 11 Markaz F-11, Islamabad, Islamabad Capital Territory, Pakistan",Al-Latif Pharmacy
G-9/1 Islamabad,33.6778464,73.0318006,"G- Kashmir Hwy, 1, Service Road South, G 9/1 G-9, Islamabad, Islamabad Capital Territory 44000, Pakistan", KRL Foundation Pharmacy
"Ali Medical Centre, F-8 Markaz Islamabad",33.7105372,73.0420472,"Kohistan Road، F8-Markaz، Islamabad, Pakistan",IDH Pharmacy-24
"Shahwez Centre, F-8 Markaz Islamabad",33.7115684,73.0378058,"Shawaiz Centre, Ground Floor, Plot 8-C, Johar Rd, F-8 Markaz, F-8, Islamabad, ICT, Pakistan",Bilal Medical Store
"Lehtrar Road, Satra Meel",33.645224,73.1745179,"Lehtrar Road, Islamabad, Islamabad Capital Territory, Pakistan",Ali Medical Store
"Zeeshan Plaza, Sector G-8 Markaz Islamabad",33.6990088,73.04925639999999,"Zeeshan Plaza, G-8 Markaz, G-8, G 8 Markaz G-8, Islamabad, Islamabad Capital Territory 44000, Pakistan",Khalil Pharmacy
Kahuta Industrial Triangle,33.5414484,73.14679819999999,"Kahuta Rd, Model Town Humak, Islamabad, Islamabad Capital Territory, Pakistan",Rotex Pharma Pvt Ltd
"Al-Inayat Shopping Mall, G-11 Markaz Islamabad",33.669322,72.999939,"G-11 Markaz Islamabad، G 11 Markaz G-11, Islamabad, Islamabad Capital Territory, Pakistan",Al-Rehman Pharmacy
Shakrial Zia Masjid,33.63679279999999,73.1084677,"Khan Akbar Town، Nawaz, Islamabad, Rawalpindi, Islamabad Capital Territory 46000, Pakistan",Haseeb Medical Store
"Jinnah Super Market, F-7",33.7211528,73.0575267,"Opposite To Flower Market، College Road، F 7 Markaz F-7, Islamabad, Islamabad Capital Territory, Pakistan",Royal Medical Store
"Commercial Market, Nai Abadi, Madina Town, Ali Pur farash Islamabad",33.6456822,73.1739398,"Madina Town Rd, Ali Pur, Islamabad, Islamabad Capital Territory, Pakistan",Baig & Sons Pharma Distributor
"Plot No 154, St. No 9, Industrial Area, I-10/3 Islamabad",33.6467957,73.0375761,"I-10, Islamabad, Islamabad Capital Territory, Pakistan",IBL Operations Pvt Ltd
"Phase-IV, Allah Hoo chowk, Bahria Town Islamabad",33.5523081,73.1393337,"Shop #1 Bahria Heights II Rawalpindi, 46000, Pakistan",Shaheen Pharmacy
"Business Trade Centre, F-10 Markaz Islamabad",33.6928402,73.0139016,"Shop No. 2, Capital Trade Center, Ground Floor, N#212 Street 54, F 10/4 F-10, Islamabad, Islamabad Capital Territory 44000, Pakistan",Shaheen Pharmacy
"Sangum Market, I-8/3",33.6719789,73.0745829,"Market Parking 1, I-8/3 I 8/3 I-8, Islamabad, Islamabad Capital Territory, Pakistan",Medika Pharmacy
"Madina Arcade, G-13/1 Islamabad",33.6456099,72.96350149999999,"Street 110, G-13/1 G 13/1 G-13, Islamabad, Islamabad Capital Territory, Pakistan",Al-Nasir Pharmacy
"Taqwa Market, Sector G-9/4 Islamabad",33.6894567,73.03999139999999,Noor Plaza Taqwa Market Street 66 G-9/4، Pakistan,Noor Pharmacy
Officer Colony Sarai Kharbooza,23.733022,90.38533790000001,"121, Islamia Market, Nilkhet, Dhaka 1205, Bangladesh",Altaf Medical Store
"Near Motorway Chowk, Jhangi Syeddan",33.6316478,72.9384993,"G.T. Road Interchange (Motorway Chowk), Grand Trunk Rd, G-15, Islamabad, Islamabad Capital Territory, Pakistan",Madina Medical Store
"Main Fateh Jang Road, Tarnol",33.6555905,72.9076669,"Tarnol, Islamabad, Islamabad Capital Territory, Pakistan",Khan Medical Sore
"Shafi Hospital lehtrar Road, Ali Pur Nai Abadi",33.6453417,73.1754395,"Lehtrar Rd, Nai Abadi, Alipur, Islamabad, Islamabad Capital Territory 44600, Pakistan",Shafi Medical Store
"Umer Plaza, F-8 Markaz Islamabad",33.7116988,73.04141299999999,"Kohistan Rd, F-8 Markaz F 8 Markaz F-8, Islamabad, Islamabad Capital Territory, Pakistan",Mehmood Pharmacy
"Ghakhar Complex, Koral Town, Express Way",32.3001995,74.13880259999999,"Ghakhar, Gujranwala, Punjab, Pakistan",D. Pharma Medical Store
Phase-I Khanna East High Way Islamabd,33.6206523,73.12030349999999,"Ghauri Town, Islamabad, Rawalpindi, Islamabad Capital Territory, Pakistan",Pharmaclinics Pharmacy
F-8 Markaz Islamabad,33.7115085,73.0413186,"Plot 13-F, Kohistan Rd, F-8 Markaz, F-8, F 8 Markaz F-8, Islamabad, Islamabad Capital Territory 44220, Pakistan",A.R. Sons Pharmacy Umer Centre
Near Post Office Golra Sharif,33.6939092,72.97705909999999,"Golra E-11, Islamabad, Islamabad Capital Territory, Pakistan",Family Medical Store
New Abadi Sohan Islamabad,33.5348215,73.1427052,"Nai Abadi Islamabad, Islamabad Capital Territory, Pakistan",Zeeshan Medical Store
"Jinnah Buleward DHA, Phase-II",33.5311431,73.1579935,"Sector E DHA Phase II, Islamabad, Islamabad Capital Territory, Pakistan",Medi Cure Pharmacy
"Harmain Plaza, near Ghosia Masjid Ali Pur",53.56527910000001,-2.4439276,"Bolton BL3 6SX, UK",The Health Care Pharmacy
main G.T. Road Tarnol,33.6514864,72.9091708,"Grand Trunk Rd, Tarnol, Islamabad, Islamabad Capital Territory, Pakistan",Tanoli Store
"jawa Road, Rawat Islamabad",33.4966669,73.1950832,"Gakhar Market, Jawa Rd, Main Bazar, Rawat, Islamabad, Islamabad Capital Territory 45900, Pakistan",Hasnain Medical Store
"lehtrar Road, Ali Pur",33.6451462,73.1808034,"Lehtarar Road, Ali Pur, Islamabad, Islamabad Capital Territory, Pakistan",New Attiqa Medical Store
"Shoukat Plaza, I-10 Markaz Islamabad",33.6482399,73.0404568,"Shaukat Plaza, Shop 10, Korang Rd, I-10 Markaz, I-10, I 10 Markaz I-10, Islamabad, Islamabad Capital Territory 44000, Pakistan",Walton Pharmacy
"Beverly Centre, Blue Area",33.7201801,73.0738234,"Beverly Centre, Jinnah Ave, F 6/1 Blue Area, Islamabad, Islamabad Capital Territory 44000, Pakistan",Noman Pharmacueitcals Distributors
"Madina Cash & Carry, Main Service Road East Khanna Pul",33.6292743,73.1134983,"Khanna Pul, Khanna Rawalpindi, Islamabad Capital Territory, Pakistan",MCC Pharmacy
"Main murree Road, Bhara kahu Islamabad",33.74581,73.18965,"Barakahu, Islamabad, ICT, Pakistan",Abbas Medical Sore
"I & T Centre, G-9/4 Islamabad",33.6860674,73.04511839999999,"Street 55, G-9/4 G 9/4 G-9, Islamabad, Islamabad Capital Territory, Pakistan",Elixir Pharmacy
"Lehtrar Road, P&V Scheme, Tarlai",33.645224,73.1745179,"Lehtrar Road, Islamabad, Islamabad Capital Territory, Pakistan",Dr. Sadaf Specialized Clinics Pharmacy
"Pakistan Town, Phase-II",30.375321,69.34511599999999,Pakistan,Al-Madina Medical Store
"Simly Dam Road, Bhara kahu Islamabad",33.743176,73.18615799999999,"Punjab College, Satra Meel, Phulgran, P.O. Bharakahu, Islamabad, Murree Rd, Bhara Kahu, Islamabad, Islamabad Capital Territory 45400, Pakistan",Hassan Pharmacy
"Mehran Plaza, G-9 Markaz Islamabad",33.6901893,73.031748,"Mehran Plaza, Rohtas Rd, G-9 Markaz, G-9, G 9 Markaz G-9, Islamabad, Islamabad Capital Territory 44090, Pakistan",Tayyab Medical Store
"Awami Trade Centre, G-9 Markaz Islamabad",33.6900366,73.0317646,"Mehran Plaza, Rohtas Rd, G-9 Markaz, G-9, G 9 Markaz G-9, Islamabad, Islamabad Capital Territory 44090, Pakistan",Azra Masood Medical Store
"Al-Falah Manzil, St. No 26, Sector E-11/4",33.6981342,72.9799189,"Alfalah Manzil, Street 26, Golra NPF Golra E-11, Islamabad, Islamabad Capital Territory, Pakistan",Iqbal & Company
"Sudra Chowk Sharifabad Road, Tarlai",33.6424851,73.13363199999999,"Java Rd, Burma Town, Islamabad, Islamabad Capital Territory, Pakistan",Uzefa Medical Store
"Sangam Market, I-8/3",33.6719789,73.0745829,"Market Parking 1, I-8/3 I 8/3 I-8, Islamabad, Islamabad Capital Territory, Pakistan",Awan Medical Store
"Main Simbli Dam Road, Madina Market, Bhara kahu Islamabad",33.7449623,73.1762626,"Bhara Kahu, Islamabad, Islamabad Capital Territory, Pakistan",Ruqqkia Medical Store
"Near Quaid-e-Azam International hospital, Golra more Islamabad",33.6251427,72.9734166,"Near Golra Morr، Peshawar Road، H-13, Islamabad, Rawalpindi, Islamabad Capital Territory, Pakistan",Boots Pharmacy
Al-Inayat Mall G-11 Markaz Islamabad,33.6679494,72.9971274,"Software Technology Park, Service Rd N, G-11 Markaz G 11 Markaz G-11, Islamabad, Islamabad Capital Territory, Pakistan",Premier Health Services
"Fateh Jang Road, Marchan Stop Tarnol",33.5672929,72.6505957,"Fateh Jang, Attock, Punjab, Pakistan",Amjad Ali Medical Store
"Chungi Gillani Plaza, Peshawar Road",33.8835894,72.3764904,"Peshawar Rd, Pakistan",New Khan Medical Store
"Main Murree Road, Bhara kahu Islamabad",33.7405438,73.1810247,"Murree Rd, Bhara Kahu, Islamabad, Islamabad Capital Territory, Pakistan",Masha Allah Medical Store
"Near Adil CNG Simly Dam Road, Bhara kahu Islamabad",33.7354828,73.21395509999999,Near Seri choke، Pakistan,Al-Bashir Medical Store
"Allah Wala Plaza, G-9 Markaz Islamabad",33.6876775,73.0338865,"G-9 Markaz G 9 Markaz G-9, Islamabad, Islamabad Capital Territory, Pakistan",Ali Pharmacy
"Block-D, Civil Centre, Phase-IV, Bahria Town Islamabad",33.549391,73.1239781,"175، Block D St, Civic Center Bahria Town, Rawalpindi, Islamabad, Punjab, Pakistan",Vogue Pharmacy
"Huma Plaza, Blue Area",33.7220338,73.08126589999999,"Huma Plaza, Jinnah Ave, Block C, Blue Area, G 6/2 Blue Area, Islamabad, Islamabad Capital Territory 44000, Pakistan",New Fedceral Medical Store
"Main Double road, PWD Housing Societty Lohi Bher",33.5814951,73.16298780000001,"Lohi Bhair, Islamabad, Islamabad Capital Territory, Pakistan",Megalife Pharmacy
"Harno Thanda Pani, Lehtrar Road",33.6469923,73.2188377,"Lehtrar Road, Thanda Pani, Islamabad, Islamabad Capital Territory, Pakistan",Faisal Medical Store
"Bismillah Plaza, G-11/2",33.6718465,72.9911948,"Adnan Market, St 69, G-11-2, G-11, G 11/2 G-11, Islamabad, Islamabad Capital Territory 44000, Pakistan",SH Markeeting Services (Pvt) Ltd
"Main Samli Dam Road, Pind Begwal",33.7079175,73.2473996,"Simly Dam Road, Islamabad, Islamabad Capital Territory, Pakistan",Gomal Medical Store
Harin mera P.O Sihala,33.2615676,73.3057508,"Gujar Khan, Rawalpindi, Punjab, Pakistan",Super Gujar Khan Medical Store
"mehran Plaza, Sector G-9 Markaz Islamabad",33.6901599,73.0316928,"G-9 Markaz G 9 Markaz G-9, Islamabad, Islamabad Capital Territory, Pakistan",New Medicine Point Medical Store
Zaki Centre I-8 Markaz Islamabad,33.6667828,73.07330809999999,"44 Zak Tower, I-, I 8 Markaz I-8, Islamabad, Islamabad Capital Territory, Pakistan",Pharmacons Pharmaceuticals Distributors
"Block 27-H, Mumtaz Plaza, G-9 Markaz Islamabad",33.6886389,73.0314937,"Mumtaz Plaza, Rohtas Rd, G-9 Markaz, G-9, G 9 Markaz G-9, Islamabad, Islamabad Capital Territory 44090, Pakistan",Sajid Medical Store
I-9/3 Islamabad,33.6635628,73.059079,"Street 3, I-9/3 I 9/3 I-9, Islamabad, Islamabad Capital Territory, Pakistan",Abu Dawood Trading Co.
Industrial Triangle Islamabad.,33.5455885,73.1475627,"Khuda Bakhsh Rd, Humak Islamabad, Islamabad Capital Territory, Pakistan",Amson Vaccines & Pharma Pvt Ltd
G-13/1 Islamabad,33.6456828,72.9622965,"G-13/1 G-13, Islamabad, Islamabad Capital Territory, Pakistan",Al-Abbas Medical Services
Golra Railway Station,33.6705685,72.9476309,"Golra Rd, Islamabad, Islamabad Capital Territory, Pakistan",Arshad Medical Store
"I & T Centre, G-9/4 Islamabad",33.663516,73.081251,"Street 92, I-8/4 I 8/4 I-8, Islamabad, Islamabad Capital Territory 44000, Pakistan",A&Z Health Services
main Bazar Sangjani,33.6746148,72.8482247,"Sangjani, Islamabad, Islamabad Capital Territory, Pakistan",Babar Vet & Medical Store
"Fateh Jang Road, Tarnol",33.6555905,72.9076669,"Tarnol, Islamabad, Islamabad Capital Territory, Pakistan",Imran Medical Store
"Garden Town New Shakrial, Zaia Masjid",9.4535964,12.0318456,"Numan, Nigeria",Numan-B Medical Store
"Square Time Plaza, I-8 Markaz Islamabad",33.6673258,73.0752199,"Time Square Plaza, I-8 Markaz I-8, Islamabad, Islamabad Capital Territory, Pakistan",Shaheen Pharmacy
"Mughal Plaza, Benazir Chowk Fateh Jang Road, Tarnol",33.5672929,72.6505957,"Fateh Jang, Attock, Punjab, Pakistan",First Plus Pharmacy
"Ahmed Plaza, Trammari Chowk Lehtrar Rd",33.645224,73.1745179,"Lehtrar Road, Islamabad, Islamabad Capital Territory, Pakistan",Roots Health Sciences Distributors
Tiens Plaza G-8 Markaz Islamabad,33.6983104,73.0477178,"G-8 Markaz G 8 Markaz G-8, Islamabad, Islamabad Capital Territory, Pakistan",Taianshi International Pakistan Company (Pvt) Ltd
"Allah Dad Plaza, Sector G-8 Markaz Islamabad",33.699164,73.04889229999999,"G-8 Markaz G 8 Markaz G-8, Islamabad, Islamabad Capital Territory, Pakistan",Jan Sons Pharmacy
Darbar Golra Sharif,33.6916525,72.9742912,"Golra Rd, Golra E-11, Islamabad, Islamabad Capital Territory, Pakistan",Apna Medical Store
"Al-Rehman Plaza, G-11 Markaz Islamabad",33.6687503,73.0004931,"G-11 Markaz G 11 Markaz G-11, Islamabad, Islamabad Capital Territory, Pakistan",Pharma Save Pharmacy
Barma Town Islamabad,33.6844202,73.04788479999999,"Islamabad, Islamabad Capital Territory, Pakistan",Shabbir Medical & Veterinary Store
"Islamabad Specialist Clinic Kiran Plaza, F-8 Markaz Islamabad",33.7110178,73.04147259999999,"Kiran Plaza, Ground Floor, Plot 13-A, F-8 Markaz, F-8, Islamabad, ICT, Pakistan",Pharmacy-24 (IDH)
"Jinnah Super market, Sector F-7 Markaz Islamabad",33.72142,73.05662,"F-7 Markaz, F-7, Islamabad, ICT, Pakistan",Javed Pharmacy
"Main Murree Road, Bhara kahu Islamabad",33.7460296,73.19110440000001,"Murree Rd, Mohallah Chaudhrian Bhara Kahu, Kot Hathyal, Islamabad, Islamabad Capital Territory, Pakistan",Al-Majeed Health Mart Pharmacy
"Main Murree New PCO Stop, Bhara kahu Islamabad",33.7405438,73.1810247,"Murree Rd, Bhara Kahu, Islamabad, Islamabad Capital Territory, Pakistan",Ist U Pharmcy
"Sitara Plaza, Diplomatic Enclave Sector G-5",33.7215366,73.1067838,"Ramna 5, Sitara Plaza, Diplomatic Enclave, G5, Diplomatic Enclave, Islamabad, Islamabad Capital Territory 44000, Pakistan",World Mart Pharmacy
"Sarai Kharboza, G.T. Road Tarnol",33.6514864,72.9091708,"Grand Trunk Rd, Tarnol, Islamabad, Islamabad Capital Territory, Pakistan",Ghazi Brothers Distributors
"Ittefaq Colony, Tarnol",33.64661299999999,72.9074887,"Fatehjang Rd, Tarnol, Islamabad, Islamabad Capital Territory 44000, Pakistan",Faraz Medical Store
"Shopping Centre, Chakshahzad",43.5926695,-79.6427339,"100 City Centre Dr, Mississauga, ON L5B 2C9, Canada",Haseeb Medical Store
"Main Simly Dam Road, Seeri Chowk, Bhara kahu Islamabad",33.738194,73.1881789,"Simly Dam Road, Bhara Kahu, Islamabad, Islamabad Capital Territory, Pakistan",Aqsa Pharmacy
"Hathial Shopping Centre, Simli Dam Road, Bhara kahu Islamabad",33.738194,73.1881789,"Simly Dam Road, Bhara Kahu, Islamabad, Islamabad Capital Territory, Pakistan",Bio Marketing Services
Islamabad.,33.7349401,73.1746233,"Main Bazar Rd, Bhara Kahu, Islamabad, Islamabad Capital Territory, Pakistan",Raja Medical Store Main Bazar Sangjani
"H-Block, H-8/4",33.6752489,73.06640089999999,"Pitras Bukhari Rd, H-8/4، Islamabad, Pakistan",Shifa International Hospital Pharmacy
"D-Block, H-8/4",33.6751265,73.0670796,"Pitras Bukhari Road, Sector H-8/4، H 8/4 H-8, Islamabad, Islamabad Capital Territory, Pakistan",Shifa International hospital Pharmacy
"Plot No 13-D, Sector F-8 Markaz Islamabad",33.5234618,73.15683589999999,"8, Sector F DHA Phase II, Islamabad, Islamabad Capital Territory, Pakistan",Khan Medical Sore
"Abbasi Market, Sarai Kharbooza, Tarnol",33.6610532,72.8973769,", ICT, Pakistan",Shariq Medical Store
"Block-D, Commercial Area, Pak PWD Housing Society",33.5715036,73.14516789999999,"PWD Housing Society Sector D PWD Society, Rawalpindi, Islamabad, Punjab, Pakistan",D. Watson Pharmacy
"Kartana More, Opptt DHA, G.T. Road",33.516201,73.1669055,"Grand Trunk Road، Rawalpindi, Islamabad, Islamabad Capital Territory, Pakistan",Pakistan International Hospital Pharmacy
"Durrani Plaza, PWD Housing Society",33.5708699,73.1452867,"PWD Housing Society Rawalpindi, Punjab, Pakistan",Life Line Pharmacy
"Badana Kalan, Tarnol",33.6555905,72.9076669,"Tarnol, Islamabad, Islamabad Capital Territory, Pakistan",Saud Medical Store
"Saif Health Care Ltd, Kulsum Plaza, Blue Area",33.71824,73.07316,"Block E, Blue Area, G 6/2 Blue Area, Islamabad, Islamabad Capital Territory 44000, Pakistan",KIH Pharmacy
"Jinnah Blueword West, Sector-A, DHA-2",33.5969183,73.0468418,"Al Amin Plaza, Peshawar Rd, Saddar, Rawalpindi, Punjab 46000, Pakistan",Khattak Pharmacy
"Kiyani Market, Main G.T. Road, Munir Abad, Rawat Islamabad",33.607783,73.0136539,"Grand Trunk Rd, Islamabad, Islamabad Capital Territory, Pakistan",A&S Medical Store
"Zakia Aziz Plaza, China Chowk, Blue Area",33.7172931,73.07078,"Blue Area, Islamabad, Islamabad Capital Territory, Pakistan",Capital Pharmacy
"Ali Plaza, Main Road, Phase-V, Ghouri Town Islamabad",33.6179042,73.1307612,"Phase 5 Ghauri Town, Islamabad, Islamabad Capital Territory, Pakistan",Shazal’s Distribution OIffice
"Ghala Stop Darwala, Near Gulberg Phase-5",33.6161312,73.22216379999999,"Darwala, Islamabad, Islamabad Capital Territory, Pakistan",Al-Abbas Medical Store
"Salam Height Plaza, Sector E-11/2",33.7001704,72.9733328,"Services Society SCHS E 11/2 E-11, Islamabad, Islamabad Capital Territory, Pakistan",Leads Pharmacy
G-8 Markaz Islamabad,33.6992033,73.0485892,"Markaz Rd, G-8 Markaz G 8 Markaz G-8, Islamabad, Islamabad Capital Territory, Pakistan",Ghouri Medical Store
"Ali Pur Farash, lehtrar road",33.6453223,73.1752814,"Lehtrar Road, Ali Pur, Islamabad, Islamabad Capital Territory, Pakistan",New Gujar Khan Medical Store
"Fateh Jang Road, Tarnol",33.649239,72.90977749999999,"Tarnol, Islamabad, Islamabad Capital Territory, Pakistan",Tahir Pharmacy
"Paradise Plaza, Sector G-10 Markaz Islamabad",33.6754363,73.0146543,"Bela Rd, G-10 Markaz G 10 Markaz G-10, Islamabad, Islamabad Capital Territory, Pakistan",Al-Fateh Pharmacy
"Sector =F, DHA Phase-II",33.5239793,73.1600377,"Sector F DHA Phase II, Islamabad, Islamabad Capital Territory, Pakistan",Pakistan Community Pharmacy
"Icon Plaza Commercial Area, Sector-B, Zaraj Scheme DHA Phase-II",33.532802,73.1452867,"Sector B DHA Phase II, Islamabad, Islamabad Capital Territory, Pakistan",Hilltop Pharmaceuticals PVT Ltd
"20-Wisal Plaza, I-10/1 Islamabad",33.6443989,73.0392229,"Bismillah Market, Wisal Plaza, I-10-1, I-10, I 10/1 I-10, Islamabad, Islamabad Capital Territory 44000, Pakistan",Services Medical Store
"Koral Community Health Centre, Bhatta Road Rawalpindi, Punjab",33.605336,72.9810138,"Bhatta Road, Rawalpindi, Punjab, Pakistan",Al-Faisal Medical Store
"Mandeer Palace, Sector I-10 Markaz Islamabad",33.6467957,73.0375761,"I-10, Islamabad, Islamabad Capital Territory, Pakistan",Medicare Pharmacy
"Ground Floor, RTA Plaza, G-15 Islamabad",33.6329291,72.9224128,"Shop # 3, RTA Plaza، G 15 Markaz G-15, Islamabad, Islamabad Capital Territory, Pakistan",Wall green’s Pharmacy
"Madina Town, Jabba Khanna Dak Islamabad",33.6283542,73.12586999999999,", ICT, Pakistan",Al-Shifa Medical Store
"Mehran Plaza, Partal Lehtrar Road",33.645224,73.1745179,"Lehtrar Road, Islamabad, Islamabad Capital Territory, Pakistan",Green Medical Store
"27-E, Ali Plaza, Blue Area",33.7272426,73.0877709,"Ataturk Ave, Block R F 6/4 Blue Area, Islamabad, Islamabad Capital Territory, Pakistan",PH Distrubutors
"A-Block, H-8/4",33.6751265,73.0670796,"Pitras Bukhari Road, Sector H-8/4، H 8/4 H-8, Islamabad, Islamabad Capital Territory, Pakistan",Shifa International Hospital Pharmacy
"Mughal Market, I-8/1 Islamabad",33.65654,73.0602638,"Abbasi Market, St 47, I-9-4, I-9, I 9/4 I-9, Islamabad, Islamabad Capital Territory 44000, Pakistan",New Madni Medical Store
"Plot No 6-A, Commercial Str. No 149, Sector G-13/4",33.6499634,72.9637728,"G-13, Islamabad, Islamabad Capital Territory, Pakistan",Get Vell Pharmacy
"Allah Wali Market, Farash Town, Lehtrar Road",33.6450267,73.1878748,"Lehtrar Road, Farash, Islamabad, Islamabad Capital Territory, Pakistan",Satti Medical Store
"CNG Station Lehtrar Road, Khanna Dak Islamabad",33.6319405,73.122421,"Lehtrar Road, Khanna Islamabad, Islamabad Capital Territory, Pakistan",Sultan Pharmacy
"Saqib Plaza, Pakeeza Market, Sector I-8/4",33.6635843,73.076129,"I-8/4 I 8/4 I-8, Islamabad, Islamabad Capital Territory, Pakistan",Abbasi Pharmacy
"Rehara Complex, Kurri Road, Mohra Noor",33.6331578,73.0872339,"Kurri Rd, Rawalpindi, Punjab, Pakistan",Begum Jan Medical Store
"Al-Yousaf Market, Khan akber Town, Khanna Dak Islamabad",33.6302786,73.1085555,"Lehtarar Rd, Shakrial, Rawalpindi, Punjab 44000, Pakistan",Nazir Medical Store
G-7/4,33.7056917,73.0793568,"Muhammad Mansha Yaad Rd, G-7/4 G 7/4 G-7, Islamabad, Islamabad Capital Territory, Pakistan",Islamic International Dental hospital Medical Store
"Noor Hospital Fateh jang Road, Tarnol",33.6555905,72.9076669,"Tarnol, Islamabad, Islamabad Capital Territory, Pakistan",Anood Medical Store
"Shifa Foundation, H-8/4",33.6790202,73.073453,"Jaffer Khan Jamali Rd, H-8/4 H 8/4 H-8, Islamabad, Islamabad Capital Territory, Pakistan",Shifa Foundation Falahee Clinic Pharmacy
"Dhoke Deptian Lehtrar Road, Ali Pur farash Islamabad",33.6453253,73.1786968,"Lehtrar Road, Ali Pur, Islamabad, Islamabad Capital Territory, Pakistan",Shah Sultan Medical Store
"Shop No 2, New Plaza Main Market, Rawal Town Islamabad",34.1240709,72.4613191,"Swabi, Khyber Pakhtunkhwa, Pakistan",Swabi Medical Sore
"Inayat Plaza, Al-Madina Market, Iqbal Town Islamabad",33.6844202,73.04788479999999,"Islamabad, Islamabad Capital Territory, Pakistan",Pak Punjab Distributor
"Plot No 15, FECHS, E-11/2",33.698188,72.97853529999999,"E-11, Islamabad, Islamabad Capital Territory, Pakistan",Harmain Pharmacy
"Goal Market, G-7/4",21.3890824,39.8579118,Mecca Saudi Arabia,Al-Makkah Medical Store
"Al-Rehman Mall, Lower Ground G-11 Markaz Islamabad",33.6687503,73.0004931,"G-11 Markaz G 11 Markaz G-11, Islamabad, Islamabad Capital Territory, Pakistan",Armaycure Pharmacy
"Qasim Market,  Arcade, G-13/4",33.6480799,72.9669109,"No., Street 122, G 13/4 G-13, Islamabad, Islamabad Capital Territory, Pakistan",Pharmacy-360
"G.T. Road, Sawan Camp",18.1777077,-76.4531869,"23 West St, Port Antonio, Jamaica",Taj Pharmacy
"Mughal Market, Mirza Chowk, Golra Service Road, G-12",33.9923801,71.4357715,"Rehman Medical Institute 5-B/2, Phase-V,، Peshawar, Pakistan",Al-Rehman Medical Store
"AL-Kashif Plaza, G-10 Markaz Islamabad",33.7104752,73.0389247,"kashif plaza، F-8 Markaz Islamabad, 44220, Pakistan",Mumtaz Medical Store
"Block No 40, I& T Centre, G-10/4",33.669752,73.01442279999999,"Service Rd W, G-10/1 G 10/1 G-10, Islamabad, Islamabad Capital Territory, Pakistan",Biowel Sciences
"Max Health Hospital, 12-K Markaz Islamabad Road, G-8 Markaz Islamabad",33.6973021,73.0487119,"Markaz Rd، G 8 Markaz G-8, Islamabad, Islamabad Capital Territory, Pakistan",Meteast Pharmacy
"Plot No MC-50, Phase-4-A, Ghouri Town Islamabad",33.6170551,73.1387597,"Ghori Town Phase 4-A Phase 4 Ghauri Town, Islamabad, Islamabad Capital Territory, Pakistan",Atta Medical Store
"Super Market, Main Service Road Sector E-11",33.698188,72.97853529999999,"E-11, Islamabad, Islamabad Capital Territory, Pakistan",City Pharmacy
"Shop No 2-A, Goal Market, G-7/4",21.3890824,39.8579118,Mecca Saudi Arabia,Al-Makkah Medical Store
Al-Rehman Mall Lower Ground G-11 Markaz Islamabad,33.6687503,73.0004931,"G-11 Markaz G 11 Markaz G-11, Islamabad, Islamabad Capital Territory, Pakistan",Armaycure Pharmacy
"G.T. Road, Sawan Camp",18.1777077,-76.4531869,"23 West St, Port Antonio, Jamaica",Taj Pharmacy
"Mughal Market, Mirza Chowk, Golra Service Road, G-12",33.9923801,71.4357715,"Rehman Medical Institute 5-B/2, Phase-V,، Peshawar, Pakistan",Al-Rehman Medical Store
"Shop No 9, Al-Kashif Plaza, G-10 Markaz Islamabad",33.7104752,73.0389247,"kashif plaza، F-8 Markaz Islamabad, 44220, Pakistan",Mumtaz Medical Store
"Block No 40, I&T Centre, G-10/4",33.669752,73.01442279999999,"Service Rd W, G-10/1 G 10/1 G-10, Islamabad, Islamabad Capital Territory, Pakistan",Biowel Pharmacy
"Max Health Hospital, 12-K Markaz Islamabad Road, G-8",33.6973021,73.0487119,"Markaz Rd، G 8 Markaz G-8, Islamabad, Islamabad Capital Territory, Pakistan",Meteast Pharmacy 
"Plot No MC-50, Ghouri Town Islamabad",33.6170551,73.1387597,"Ghori Town Phase 4-A Phase 4 Ghauri Town, Islamabad, Islamabad Capital Territory, Pakistan",Atta Medical Store
"Office No 4, 2nd Floor Ahmed Centre, I-8 Markaz Islamabad",33.6995307,73.04790489999999,"G-8 Markaz Rd, G-8/2 G 8/2 G-8, Islamabad, Islamabad Capital Territory 44000, Pakistan",Bio-Life
"Saqib Plaza, Near Post Office, Sohan Islamabad",33.6604781,73.0977166,"Sohan, Islamabad, Islamabad Capital Territory, Pakistan",Rehman Pharmacy
"Shop No 2, Areej Tower Sector E-11/3 Markaz Islamabad",33.7028834,72.9801135,"Sector E-11/3, MPCHS E 11/2 E-11, Islamabad, Islamabad Capital Territory, Pakistan",Boots Pharmacy
"Shop No 7, Umer Plaza, Fateh Jang Road, Tarnol",33.5672929,72.6505957,"Fateh Jang, Attock, Punjab, Pakistan",Farm Friends Pharmacy
"Ground Floor Mehmood Plaza, Lehtrar Road",33.7148141,73.0673214,"AK Fazal-ul-Haq Rd, Block G, Blue Area, Islamabad, ICT, Pakistan",Organo Pharmacy
"Riphah International Hospital, Zone-V, Sihala",33.6167919,72.9718869,"I-14, Near Hajj Complex, I-14, Islamabad, Islamabad Capital Territory 44000, Pakistan",Shaafi Pharmacy
"Shop No 24, Rehmat Business Centre, I-10 Markaz Islamabad",33.6465515,73.03704309999999,"Rehmat Business Centre, Sohni Rd, I-10 Markaz, I-10, I 10 Markaz I-10, Islamabad, Islamabad Capital Territory 44000, Pakistan",Raza Pharmacy
"Hill View Block Lower Basement Block No 516, Pakistan Town Islamabad",33.6844202,73.04788479999999,"Islamabad, Islamabad Capital Territory, Pakistan",Kohsar Distributors
"Shop No 8, City Plaza, F-10 Markaz Islamabad",33.6979033,73.01147,"City Plaza, 10th Ave, F-10 Markaz, F-10, F 10/3 F-10, Islamabad, Islamabad Capital Territory 44000, Pakistan",Ihsan P:harmacy
"Benazir Chowk Fateh Jang Road, Tarnol",33.5672929,72.6505957,"Fateh Jang, Attock, Punjab, Pakistan",Al-Syed Medical Store
"Plot No 2-B, Bazar No 8, Bilquis Memorial Hospital, G-9/2",33.692365,73.030502,"jehangir market. G-9/2 . Islamabad، G 9/2 G-9, Islamabad, Islamabad Capital Territory 44000, Pakistan",Bilquis Medical Store
"Main Murree Road, Athal Chowk, Oppt. Summit Bank, Barkau",33.5947885,73.05716629999999,"dd/29, shamsabad، Murree Rd, Pakistan",Malik Medicare Pharmacy
Shams Colony Golra More H-13,33.6287558,72.97011169999999,"Shams Colony Rd, H-13, Rawalpindi, Islamabad Capital Territory, Pakistan",Malik Medical Store
"Basement Hall No 3, Al-Hameed Centre, G-11 Markaz Islamabad",33.669971,72.99943189999999,"Office no 29,30, Al Hameed Mall, G 11 Markaz G-11, Islamabad, Islamabad Capital Territory, Pakistan",D. Watson Pharmacy
"Deen Pavilion Blue Area, F-7 Markaz Islamabad",33.7088642,73.0555787,"Block H، G 7/2 Blue Area, Islamabad, Islamabad Capital Territory, Pakistan",D. Watson Pharmacy (compounding)
"Main Murree Road, Near Naveed Marriage Hall Bhara kahu Islamabad",33.7392134,73.1783636,"Umer Ayub Medical Complex, Bhara Kahu, Kot Hathyal, Islamabad, Islamabad Capital Territory, Pakistan",Umer Ayub Pharmacy
"Shop No 10, 11, 12, Al-Rehman Plaza, G-9 Markaz Islamabad",33.68824,73.03350999999999,"G-9 Markaz, G-9, Islamabad, ICT, Pakistan",Super Drug Pharmacy
"Abdullah heights, Plaza C-7 Abu Bakar Chowk, St. No 26, Ghouri Town Islamabad",33.6186569,73.1338184,"Street Number 26, Ghori Town Phase 4-A Phase 4A Ghauri Town, Islamabad, Islamabad Capital Territory, Pakistan",Amjid Ali Medical Store
"Sardar Mansion Fazal e Haq Road, Blue Area",33.7168281,73.0719244,"A.K. Fazl-ul-Haq Rd, G 7/3 Blue Area, Islamabad, Islamabad Capital Territory, Pakistan",Maroof Pharmacy
"Indoor Pharmacy, 3rd Floor Aklas Plaza, G-10 Markaz Islamabad",33.6772223,73.01639899999999,"3RD FLOOR, AKLAS PLAZA, BEHIND BABRI MASJID,, Sawan Road, Islamabad, 44000, Pakistan",Australian Concept Infertility Medical Centre
"Shop No 4, Block No 1-J, Tariq Market, F-10/2",33.6907347,72.99901679999999,"Street 14, F-10/2 F 10/2 F-10, Islamabad, Islamabad Capital Territory, Pakistan",The RAF Pharmacy
"United Plaza, Fazal e Haq Road, Blue Area",33.708866,73.0560623,"United Plaza, AKM Fazal-ul-Haq Rd, Block I, Blue Area, G 7/2 Blue Area, Islamabad, Islamabad Capital Territory 44000, Pakistan",Shaheen Pharmacy
"Shop No 4, 5, 17, Zaki Centre, I-8 Markaz Islamabad",33.6667828,73.07330809999999,"44 Zak Tower, I-, I 8 Markaz I-8, Islamabad, Islamabad Capital Territory, Pakistan",Pharmacons Community Pharmacy
"Office No 20, Ground Floor Zaki Plaza, I-8 Markaz Islamabad",33.6668803,73.0733573,"Zaki Plaza, Tipu Sultan Rd, I-8 Markaz, I-8, I 8 Markaz I-8, Islamabad, Islamabad Capital Territory 44000, Pakistan",Pharmacons Distribution and Marketing Network
"Murree Road, Bhara kahu Islamabad",33.7405438,73.1810247,"Murree Rd, Bhara Kahu, Islamabad, Islamabad Capital Territory, Pakistan",Iqbal Pharmacy
"Office No 13, Rose-I Plaza, I-8 Markaz Islamabad",33.6687962,73.0760829,"Rose 1 Plaza, I-8 Markaz I 8 Markaz I-8, Islamabad, Islamabad Capital Territory, Pakistan",Blue Care Pharma Distributor
"Shop No 8, 15, Nomi Arcade G-15 Markaz Islamabad",33.6320702,72.9215562,"Main Rd Number 1, G-15 Markaz G 15 Markaz G-15, Islamabad, Islamabad Capital Territory, Pakistan",New Alees Pharmacy
"Shop No 9, Plot No 3-N, Mandair Palace I-10 Markaz Islamabad",33.6487643,73.0407122,"I-10 Markaz I-10, Islamabad, Islamabad Capital Territory, Pakistan",Shifa Medical Store
"Simly Dam Road, Bhara kahu",33.738194,73.1881789,"Simly Dam Road, Bhara Kahu, Islamabad, Islamabad Capital Territory, Pakistan",Uzair Medical Store
Nai Abadi Bhara kahu,33.7489119,73.1851121,"Nai Abadi Bhara Kahu, Islamabad, Islamabad Capital Territory, Pakistan",Bio Life Medical Store
Dhoke Abbasi Tarnol,33.6051147,73.11480279999999,"Main Bazaar Shah Khalid Colony, Shah Khalid Colony Rawalpindi, Rawalpindi District, Islamabad Capital Territory, Pakistan",Al-Jannat Medical Store
"Jawa Road, Rawat",33.496653,73.1951205,"Jawa Rd, Main Bazar, Rawat, Islamabad, Islamabad Capital Territory 45900, Pakistan",Al-Jawad Medical Store
I-9 Markaz Islamabad,33.6566613,73.0558388,"I-9 Markaz I 9 Markaz I-9, Islamabad, Islamabad Capital Territory, Pakistan",Ideal Pharmacy
I-9 Markaz Islamabad,33.6844202,73.04788479999999,"Islamabad, Islamabad Capital Territory, Pakistan",Ms/. Tariq Medical Store
Sector E-14,33.6844202,73.04788479999999,"Islamabad, Islamabad Capital Territory, Pakistan",Subhan Medical Store
Sector G-12,33.6514087,72.9835423,"Kashmir Hwy, G-12, Islamabad, Islamabad Capital Territory, Pakistan",Dehan Medical Store
Fazal-e-Haq Road,33.7172931,73.07078,"Blue Area, Islamabad, Islamabad Capital Territory, Pakistan",Shaban Pharmacy
"Main Road, I-0 Markaz Islamabad",33.6844202,73.04788479999999,"Islamabad, Islamabad Capital Territory, Pakistan",Maham Pharmacy
"Amir Plaza, I-10 Markaz Islamabad",33.6514,73.04473,"I-10-3, I-10, I 10/3 I-10, Islamabad, Islamabad Capital Territory 44000, Pakistan",Max Pharmaceuticals Distributor
I-9 Markaz Islamabad,33.6566613,73.0558388,"I-9 Markaz I 9 Markaz I-9, Islamabad, Islamabad Capital Territory, Pakistan",Hashim Pharmacy
Athal Chowk Bhara kahu,33.7396277,73.1797468,"Murree Rd, Athal Chowk, Barakahu, Bhara Kahu, Islamabad, Islamabad Capital Territory 44000, Pakistan",Naeem Medical Store
Nai Abadi Bhara kahu,33.7489119,73.1851121,"Nai Abadi Bhara Kahu, Islamabad, Islamabad Capital Territory, Pakistan",Zia Medical store
Sector F-17 Markaz Islamabad,33.5239793,73.1600377,"Sector F DHA Phase II, Islamabad, Islamabad Capital Territory, Pakistan",New Abdullah Pharmacy
I-9 Markaz Islamabad,33.6566613,73.0558388,"I-9 Markaz I 9 Markaz I-9, Islamabad, Islamabad Capital Territory, Pakistan",Omer Traders Pharmacy
"Kiani Road, Bhara kahu",33.7427559,73.173777,"Kiani Rd, Bhara Kahu, Islamabad, Islamabad Capital Territory, Pakistan",Mahnoor Medical Store
G-7 Markaz Islamabad,33.7068708,73.0682035,"Sitara Market, Shop 3, Block C-3, G-7, G-7 Markaz, G 7 Markaz G-7, Islamabad, Islamabad Capital Territory 44000, Pakistan",Owais Medical Store
Shahpur Bhara kahu,33.7449623,73.1762626,"Bhara Kahu, Islamabad, Islamabad Capital Territory, Pakistan",Safi Medical Store
"Simly Dam road, Bhara kahu",33.738194,73.1881789,"Simly Dam Road, Bhara Kahu, Islamabad, Islamabad Capital Territory, Pakistan",Dhanyal Medical Store
"Ahmed Arcade, Ghauri Town, Phase-4-A",33.621685,73.1393861,"Phase 4 Ghauri Town, Islamabad, Islamabad Capital Territory, Pakistan",Baber’s Pharmacy
"Plot No 244-A, I-9/3",33.6617123,73.0567611,"I-9/3 I-9, Islamabad, Islamabad Capital Territory, Pakistan",Zaheer Pharma
"Ground Floor, Main Road, Class-III, G-13/1",33.6450393,72.96357789999999,"H-25 Street 487, G-13/1 G 13/1 G-13, Islamabad, Islamabad Capital Territory, Pakistan",New Life Pharmacy
Main Bazar Rawat,33.4955769,73.1964089,"GT Rd, Rawat, Islamabad, ICT, Pakistan",Asif Medi Plus Medical Store
"Near Nazakat Market, nai Abdi Sohan Islamabad",33.5348215,73.1427052,"Nai Abadi Islamabad, Islamabad Capital Territory, Pakistan",Khurshid Medical Store
"Khan Akber Town, New Shakrial",33.6135078,73.0601799,"Iqbal Rd, Raja Bazar, Committe Chowk, Rawalpindi, Punjab 46000, Pakistan",Shahid Medical Store
"MB City Mall Plaza, I-8 Markaz Islamabad",33.6673258,73.0752199,"Time Square Plaza, I-8 Markaz I-8, Islamabad, Islamabad Capital Territory, Pakistan",B.F. Pharmacy
"Shakeel Square Market, I-9/1",33.6531516,73.0538097,"I-9/1 I-9, Islamabad, Islamabad Capital Territory, Pakistan",Agha Medical Store
"Saif Health Care Ltd, Kulsum Plaza, B.A",33.71824,73.07316,"Block E, Blue Area, G 6/2 Blue Area, Islamabad, Islamabad Capital Territory 44000, Pakistan",Kulsum Pharmacy
"Plot No 32, I-8 Markaz Islamabad",33.6673258,73.0752199,"Time Square Plaza, I-8 Markaz I-8, Islamabad, Islamabad Capital Territory, Pakistan",Pharmacy-3
"Class-III Shopping Centre, G-8/1",33.6907445,73.0508582,"G-8/1 G 8/1 G-8, Islamabad, Islamabad Capital Territory, Pakistan",Malik Medical Store
Sohan Islamabad,33.659248,73.096833,"SOHAN، Sohan, Islamabad, Islamabad Capital Territory 45740, Pakistan",Faridon Medical Store
Main Melody Market,33.7169396,73.0851668,"G-6 Markaz G 6 Markaz G-6, Islamabad, Islamabad Capital Territory, Pakistan",Sabir Medical Store
"Mir Trade Centre, Melody Market",33.7172312,73.0839218,"G-6 Markaz G 6 Markaz G-6, Islamabad, Islamabad Capital Territory, Pakistan",Hashmi Pharmacy
"Abu Bakkar Plaza, Sorain H-13",33.6844202,73.04788479999999,"Islamabad, Islamabad Capital Territory, Pakistan",Friends Medical Store
"Block 13-R, F-7 Markaz Islamabad",33.7211404,73.0571301,"F-7 Markaz F 7 Markaz F-7, Islamabad, Islamabad Capital Territory, Pakistan",Elahi Medical Store
"Gul Plaza, Sector G-10 Markaz Islamabad",33.6948562,73.0140102,"Sumbal Rd, F-10 Markaz F 10/4 F-10, Islamabad, Islamabad Capital Territory, Pakistan",Sina Pharmacy
"Khokhar Market, Ali Pur",33.6440818,73.1733127,"Ali Pur, Islamabad, Islamabad Capital Territory, Pakistan",Hamza Medical Store
"Industrial Area, I-9/2",33.6577523,73.0479067,"I-9/2 I-9, Islamabad, Islamabad Capital Territory, Pakistan",Raaziq Marketing & Management Services Pvt Ltd
Sector F-11 Markaz Islamabad,33.68384,72.98670000000001,"Seovay Arcade, F-11 Markaz، F 11 Markaz F-11, Islamabad, Islamabad Capital Territory, Pakistan",Shifa Pharmacy
"Ghauri Town, Phase 3",33.6164361,73.1298411,"592 Phase III Internal Rd 592 Phase III Internal Rd, Pakistan",Bioways Health Care Distributor
"AAA Plaza, G-10 Markaz Islamabad",33.6756115,73.0140407,"Ground Floor, AAA Plaza, Bela Rd, G-10 Markaz، G 10 Markaz G-10, Islamabad, Islamabad Capital Territory, Pakistan",Madison Square Pharmacy
"1-A Sheikh Market, Rawal Town",33.6866977,73.11873270000001,"Rawal Town, Islamabad, Islamabad Capital Territory, Pakistan",Capital Medical Store
"6-Rupiyal Plaza, I-10 Markaz Islamabad",33.6926852,73.0143792,"Irfan Plaza, F-10 Markaz, F-10, F 10/4 F-10, Islamabad, Islamabad Capital Territory 44000, Pakistan",Medi Health Medical Store
"Plot No 4-K, I-10 Markaz Islamabad",33.6482399,73.0404568,"Shaukat Plaza, Shop 10, Korang Rd, I-10 Markaz, I-10, I 10 Markaz I-10, Islamabad, Islamabad Capital Territory 44000, Pakistan",Drug Point Medical Store
Rose Plaza I-8 Markaz Islamabad,33.6887992,73.0328972,"Rose Plaza, G-9 Markaz, G-9, G 9 Markaz G-9, Islamabad, Islamabad Capital Territory 44090, Pakistan",Merixil Pharma
Dhoke Jilani Bhara kahu,33.7336869,73.1707639,"Main Dhook Jelani Road, Bhara Kahu, Bhara Kahu, Islamabad, Islamabad Capital Territory, Pakistan",Zahaidia Medical Store
I & T G-6/1,33.7152157,73.0807196,"G-6/1 G-6, Islamabad, Islamabad Capital Territory, Pakistan",New Sky Medical Store
"Tamasab Market, Khanna Dak",33.6844202,73.04788479999999,"Islamabad, Islamabad Capital Territory, Pakistan",Ahmed Medical Store
Sanam Chowk Khanna Dak,33.6844202,73.04788479999999,"Islamabad, Islamabad Capital Territory, Pakistan",Hassan Ali Medical Store
"Abu Huraira Market, Ashraf Town, Pindorian",33.64454550000001,73.1153333,"Ashraf Town, Burma Town, Islamabad, Islamabad Capital Territory, Pakistan",Awab Medical Store
"Ayan Plaza, Ghauri Garden",33.6337405,73.1125467,"Khanna, Islamabad, Islamabad Capital Territory, Pakistan",Al-Khair Medical Store
"Block 7-D, Super Market",33.7294831,73.0767264,"School Rd, F-6 Markaz, F-6, F 6 Markaz F-6, Islamabad, Islamabad Capital Territory 44000, Pakistan",Health Vision
"Al-Noor Plaza, Khanna Dak",33.6327267,73.1261955,"Al-Noor Plaza, Lehtrar Rd, Sanam Chowk, Khanna Dak, Khanna, Islamabad, Islamabad Capital Territory 44000, Pakistan",Chaudhry Medical Store
"Shop No A-710, Aabpara",33.7063825,73.086089,"Aabpara G 6/1 G-6, Islamabad, Islamabad Capital Territory, Pakistan",Sky Medical Store
"Samina Clinic, Rawat",33.4951028,73.19691080000001,"Rawat, Islamabad Capital Territory, Pakistan",Arslan Medical Store
"Hamza Town, Maira Jaffar",33.6844202,73.04788479999999,"Islamabad, Islamabad Capital Territory, Pakistan",Zaki Medical Store
"Ghauri Market, Aslam Chowk, Mera Jaffar Sector G-12",33.6844202,73.04788479999999,"Islamabad, Islamabad Capital Territory, Pakistan",Al-Badar Medical Store
"Zohaib Shopping Complex, Ghauri Town, Phase-5-A",33.6119262,73.1327477,"Phase 5 Ghauri Town, Islamabad, Islamabad Capital Territory, Pakistan",Fatima Medical Store
"Shop No 1, Jamil Plaza, Sector, G-10 Markaz Islamabad",33.676049,73.0139616,"G-10, Islamabad, Islamabad Capital Territory, Pakistan",Al-Noor Medical Store
"Plot No 213, St. No 7, Sector K-9/3",33.6541078,73.0345268,"80 Street 6, I-10/3 I 10/3 I-10, Islamabad, Islamabad Capital Territory, Pakistan",S. Noor Medicine Company
"Haroon Plaza, I-9 Markaz Islamabad",33.6566613,73.0558388,"I-9 Markaz I 9 Markaz I-9, Islamabad, Islamabad Capital Territory, Pakistan",Crystolite Pharma Distributors
Ghauri Town Phase-III,33.6125843,73.130166,"I,, Islamabad Capital Territory, Pakistan",Allied Medical Store
"Shop No 12, Qasim Market/Arcade St. No 122, G-13/4",33.6480799,72.9669109,"No., Street 122, G 13/4 G-13, Islamabad, Islamabad Capital Territory, Pakistan",Pharmacy 360
"Shop No 4, Ground Floor, Ghauri Town",33.6205325,73.1408613,"Ghauri Town, Islamabad, Islamabad Capital Territory, Pakistan",Allied Medical Store
"Khana Dak Near Ziarat Abdullah Shah Biyabani, Khana Dak",33.6302222,73.1230544,"Link Rd, Khanna Islamabad, Islamabad Capital Territory, Pakistan",Waleed Medical Store
"Dhoke Abbasi, Tarnol",33.6051147,73.11480279999999,"Main Bazaar Shah Khalid Colony, Shah Khalid Colony Rawalpindi, Rawalpindi District, Islamabad Capital Territory, Pakistan",Al-Jannat Medical Store
"Shop No 5, Ali Arcade Plaza, Plot No 47, Ground Floor Ghauri Town",33.6205325,73.1408613,"Ghauri Town, Islamabad, Islamabad Capital Territory, Pakistan",Hapiday Medical Store
"Shop No 1, Block No 6, Kohsar Cinema Building, Sitara Market",33.7054549,73.06817099999999,"G-7 Markaz G 7 Markaz G-7, Islamabad, Islamabad Capital Territory, Pakistan",Minahil Pharmacy
"Shop No 2, Shah Plaza, Kiani Road, Bhara kahu",33.7427559,73.173777,"Kiani Rd, Bhara Kahu, Islamabad, Islamabad Capital Territory, Pakistan",Al-Wasay Medical Store
Soan Garden,33.5639482,73.1510138,"Soan Ave, Block D Soan Gardens, Islamabad, Punjab, Pakistan",Baber Pharmacy
"PINSTECH Shopping Centre, Nilore",33.6563904,73.2617928,"Nilore, Islamabad, Islamabad Capital Territory, Pakistan",Omair Medical Store
"Shop No 1, Ghouri Town, Phase-1, Khanna East",33.6226862,73.1223838,"Ghauri Town, Islamabad, Islamabad Capital Territory, Pakistan",Al-Majeed Pharmacy
"Khan Market, Sngjani",33.6746148,72.8482247,"Sangjani, Islamabad, Islamabad Capital Territory, Pakistan",Bisma Medical Store
"T.Chowk, Rawat",33.6844202,73.04788479999999,"Islamabad, Islamabad Capital Territory, Pakistan",I & K Pharmacy I&K International hospital
Deen Pavilion Blue Area,33.708828,73.0555804,"Din Pavallions Plaza, Jinnah Ave, Block I, Blue Area, G 7/2 Blue Area, Islamabad, Islamabad Capital Territory 44000, Pakistan",D. Watson Pharmacy
Melody Market,33.71714,73.0839356,"Mir Trade Centre, Municipal Rd, Melody Market, G-6, G 6 Markaz G-6, Islamabad, Islamabad Capital Territory 44000, Pakistan",Al-Saleh Pharmacy
"Simpli Dam Road, Bhara kahu",33.738194,73.1881789,"Simly Dam Road, Bhara Kahu, Islamabad, Islamabad Capital Territory, Pakistan",Awan Medical Store
"Khanna Dak, Near Ali Trust College",33.6317332,73.12196759999999,"Lehtrar Rd, Khanna Dak, Bilal Town Khanna, Islamabad, Islamabad Capital Territory 44000, Pakistan",Sohan Vet Medical Store
"Plaza, 12-M G-8 Square, G-8 Markaz Islamabad",33.6992033,73.0485892,"Markaz Rd, G-8 Markaz G 8 Markaz G-8, Islamabad, Islamabad Capital Territory, Pakistan",MS Pharmacy
"Office No 5, 3rd Floor, M.B. Plaza I-8 Markaz Islamabad",33.607783,73.0136539,"N-5, Islamabad, Islamabad Capital Territory, Pakistan",Revive Health Care Distributors
"Zam Zam Arcade, Mini Market, G-15/2",26.1615769,50.4566612,"Al Jasra, Bahrain",Jasra Pharmacy
I-10-/3,33.6467957,73.0375761,"I-10, Islamabad, Islamabad Capital Territory, Pakistan",Parazelsus Pakistan (Pvt) Ltd
"Shop No 7, Mundair Palace Plot No 3-N, Ground Floor",25.2284953,55.2764248,19th St - Dubai - United Arab Emirates,D.I Luqman Pharmacy
"Food Market, F-7/3-3",33.7272696,73.0597125,"F 7/3 F-7, Islamabad, Islamabad Capital Territory, Pakistan",New Madni Medical Store
Rawat,33.6844202,73.04788479999999,"Islamabad, Islamabad Capital Territory, Pakistan",Noor Medical Store Main Bazar
Pind Paracha G-14,33.6844202,73.04788479999999,"Islamabad, Islamabad Capital Territory, Pakistan",Zam Zam Medical Store
"Industrial & Trading Centre, G-9/4",33.6863689,73.03905189999999,"G-9/4 G 9/4 G-9, Islamabad, Islamabad Capital Territory, Pakistan",Al-Kamran Medical Store
"Civic Centre, Melody Market",33.71714,73.0839356,"Mir Trade Centre, Municipal Rd, Melody Market, G-6, G 6 Markaz G-6, Islamabad, Islamabad Capital Territory 44000, Pakistan",Truworth Pharmacy
"Sangum Town, Khanna Dak",33.6283542,73.12586999999999,", ICT, Pakistan",Sajjad Medical Store
Ali Trust Khanna Dak,33.6324671,73.12255379999999,"Lehtrar Rd, Khanna Dak, Khanna, Islamabad, Islamabad Capital Territory 44000, Pakistan",Rawal Pharmacy
Friends Arcade F-17,33.6310432,72.8801908,"Friends Arcade Plaza، F 17/3 F 17 MPCHS (Tele Gardens), Islamabad, Islamabad Capital Territory, Pakistan",Faisal Pharma Distributors
Khanna Dak,33.6283542,73.12586999999999,", ICT, Pakistan",Khawar Medical Store
Ali Pur,33.6451462,73.1808034,"Lehtarar Road, Ali Pur, Islamabad, Islamabad Capital Territory, Pakistan",Ali Pur Medical Store
"Madina Market, Near G-11 cricket ground Sector G-12",33.6681223,72.9962491,"G-11, Islamabad, Islamabad Capital Territory, Pakistan",Shah Medical hall Medical Store
"Merra Jaffar, Sector G-12",33.6844202,73.04788479999999,"Islamabad, Islamabad Capital Territory, Pakistan",New Khattak Medical Store
"Super Market, Sector E-11",33.6993751,72.9741767,"Street 43، SCHS E 11/2 E-11, Islamabad, Islamabad Capital Territory, Pakistan",City Pharmacy
