Address,Latitude,Longitude,MapAddress,Name,"Registration Status(Reg No,& Date & Relevant Law"
"Malot Commercial Center, Shahpur Simly Dam Road, Islamabad. 051- 2232394, 03005167142 ",32.9448423,73.6116742,"Malot, Jhelum, Punjab, Pakistan",Aas Welfare Association ,"VSWA/ICT/494 ,Date: 6/9/2006, VSWA Ordinance 1961 "
"Village Khana Dak, Madina Town, Jabbah, Barma Chowk, Islamabad. 03005308511 ",33.6283542,73.12586999999999,", ICT, Pakistan",Abaseen Welfare Society ,"VSWA/ICT/439, "
"Office No.5, 1st Floor, A & K Plaza, F- 10 Markaz, Islamabad. 051-2214052, 03008438984 ",33.6954742,73.0134897,"Universal Plaza, Shop 5-4/A, 10th Ave, F-10 Markaz, F-10, F 10/3 F-10, Islamabad, Islamabad Capital Territory 44000, Pakistan",Acid Survivors Foundation. ,"VSWA/ICT/511,Date 02/08/2007, VSWA Ordinance 1961 "
"Ali Pur Frash Lehtrar Road, Islamabad. 051-2519062 ",33.6452659,73.17684849999999,"Lehtrar Road, Ali Pur, Islamabad, Islamabad Capital Territory, Pakistan",Akhmat Welfare Centre ,"VSWA/ICT/282, Date 24/04/1998, VSWA Ordinance 1961 "
"# 204, Al Mustafa Towers F-10 Markaz, Islamabad. 03458555872 ",33.691101,73.016468,"Plot No. 7, 10th Avenue, F-10, F 10/4 F-10, Islamabad, Islamabad Capital Territory 44000, Pakistan",Al Mustafa Towers Residents Associations (AMPTRWA) ,"VSWA/ICT/438, Date 27/03/2004,VSWA Ordinance 1961 "
"Mohallah Ara, Bharakau, Islamabad. 051-2512308, 03008565227 ",33.6844202,73.04788479999999,"Islamabad, Islamabad Capital Territory, Pakistan",Al-Firdous Welfare Association ,"VSWA/ICT/520, Date 2/04/2008, VSWA Ordinance 1961 "
Model Village Ali Pur Farash Islamabad. ,33.6844202,73.04788479999999,"Islamabad, Islamabad Capital Territory, Pakistan",Al-Itehad Welfare Society ,"VSWA/ICT/261,Date:0 5/08/1996, VSWA Ordinance 1961 "
NearF.G.Boys High School Shahdra Islamabad ,33.6844202,73.04788479999999,"Islamabad, Islamabad Capital Territory, Pakistan",Al-Jihad Youth Organization ,"VSWA/ICT/202,Date:1 7/06/1993,VSWA Ordinance 1961 "
"H.No.39 Gali No.67 I- 10/1,Islamabad.051-4443227 ",33.6425148,73.0361003,"Sector I-10/1 I 10/1 I-10, Islamabad, Islamabad Capital Territory, Pakistan",Al-Noor Foundation. ,"VSWA/ICT/377, Date 17.4.2002, VSWA Ordinance 1961 "
Rawal Town Islamabad ,33.6866977,73.11873270000001,"Rawal Town, Islamabad, Islamabad Capital Territory, Pakistan",Al-Noor Islamic Center ,"VSWA/ICT/90, Date 2.12.1990 VSWA Ordinance 1961 "
Sharifabad Tarlai Islamabad ,33.6501374,73.2558952,"Nilore, Islamabad, Islamabad Capital Territory, Pakistan",Al-Noor Islamic Center ,"VSWA/ICT/89, Date 2.12.1990 VSWA Ordinance 1961 "
Village Shah Allah Ditta P.O. Golra Sharif Islamabad ,33.7130956,72.9209564,"Shah Allah Ditta Islamabad, Islamabad Capital Territory, Pakistan",Al-Sadat Welfare Society ,"VSWA/ICT/394, Date 5.9.2002, VSWA Ordinance 1961 "
"House No.1, Street No. 34, F-7/4, Islamabad. 5487820-5 ",33.5583201,72.93519359999999,"Street No. 34, Islamabad, Rawalpindi, Punjab, Pakistan",Al-Shifa Trust for the prevention & Care of Blindness. ,"VSWA/ICT/35, Date 24.5.1988, VSWA Ordinance 1961 "
"12-A Mazzenine Floor 67 Itehad Center Blue Area, Islamabad. ",33.7128408,73.0635401,"AK Fazal-ul-Haq Rd, Block H, Blue Area, Islamabad, ICT, Pakistan",Amanat Welfare Council. ,"VSWA/ICT/223, Date 05.03.1996, VSWA Ordinance 1961 "
"Noor Pur Shahan F.R Hospital, Bari Imam Islamabad. ",33.6844202,73.04788479999999,"Islamabad, Islamabad Capital Territory, Pakistan",Amans Foundation ,"VSWA/ICT/160, Date 25.5.1992 VSWA Ordinance 1961 "
"House No.494, Model Town Humak Islamabad 051-4490248 ",33.5386527,73.148237,"Model Town Humak, Islamabad, Islamabad Capital Territory, Pakistan",Anjuman Falah-e- Khawateen ,"VSWA/ICT/347, Date 25.6.2001 VSWA Ordinance 1961 "
"House No.413, Ali Pur Farash Islamabad ",33.6406236,73.17773749999999,"Ali Pur, Islamabad, Islamabad Capital Territory, Pakistan",Anjuman Haqooq-e-Insaniat ,"VSWA/ICT/184, Date 5.1.1993 VSWA Ordinance 1961 "
Sector E-11 Islamabad. 051-5474492 ,31.0452345,46.2665911,"Nasiriyah, Iraq",Anjuman Mehria Nasiria ,"VSWA/ICT/333, Date 8.12.2000, VSWA Ordinance 1961 "
"Plot No.39, Wholesale Fruit Market, I- 11/1, Islamabad. 0333-5103467 ",33.6334408,73.0198654,"I-11/1 I 11/1 I-11, Islamabad, Islamabad Capital Territory, Pakistan","Anjuman Wholesale Fruit Commission Agent Plot No.39 Wholesale Lfruit Market, I-11/1 Islamabad ","VSWA/ICT/177, Date 2.12.1992, VSWA Ordinance 1961 "
"Village Ali Pur Farash, Islamabad ",33.6844202,73.04788479999999,"Islamabad, Islamabad Capital Territory, Pakistan",Anjuman Falah-o-Behbood Sufia Noor Bakhshia ,"VSWA/ICT/484, Date 14.05.1988, VSWA Ordinance 1961 "
"Sakeena Jamia Imam Sadiq, Sector G-9/2, Islamabad. ",33.6894014,73.0316727,"G-9, Islamabad, Islamabad Capital Territory, Pakistan",Anjuman Kaneezan-e- Sakina Jamia Imam Sadiq ,"VSWA/ICT/512, Date 14.05.1988, VSWA Ordinance 1961 "
No.12 Park Road F-8/2 Islamabad. ,33.7134591,73.0338865,"F-8/2 F 8/2 F-8, Islamabad, Islamabad Capital Territory, Pakistan",Anjuman Khawateen-Arrian ,"VSWA/ICT/107, Date 23.5.1991, VSWA Ordinance 1961 "
"Shop # 158, Sabzi Manzi, Sector I- 11/4, Islamabad. 0301-6660666; 0303-6660666 ",33.6388719,73.0198654,"I-11, Islamabad, Islamabad Capital Territory, Pakistan",Anjuman Whole Sale Vegetable Commission Agents ,"VSWA/ICT/534, Date 22-10-2008, VSWA Ordinance 1961 "
"H#277-A, Margallah Road, F-11/2, Islamabad 0512212429. ",33.6834717,72.9800115,"F-11/2 F 11/2 F-11, Islamabad, Islamabad Capital Territory, Pakistan","Annur Welfare Society(Society for Health, Education and Social Welfare) ","VSWA/ICT/453, Date 13.10.2004 VSWA Ordinance 1961 "
"1ST Floor , 30-W ATS Center , Fazal- e-Haq Road , Blue Area , Islamabad. 051-2277229 ",33.6141114,73.1740628,"C-1, Gulberg Greens Block C Gulberg Greens, Islamabad, Islamabad Capital Territory, Pakistan",AOST & ABK Dosokai Islamabad Regional Centre ,"VSWA/ICT/495, Date 23.11.2006, VSWA Ordinance 1961 "
"Suit No.3, Ginza Center 3rd Floor Blue Area, Islamabad. 051-2874728 ",33.7121863,73.0615676,"3rd Floor, 11D Jinnah Ave, Block H G 7/2 Blue Area, Islamabad, Islamabad Capital Territory, Pakistan",Arrian Society. ,"VSWA/ICT/109, Date 9.6.1991 VSWA Ordinance 1961 "
Wafaqi Mohtasib Secretariat Benevolent Fund Building Islamabad. 051-9205431 ,33.69655,73.06779,"Benevolent Fund Building, G-7-1, G-7, Islamabad, ICT, Pakistan",Asian Ombudsmen Association (AOA) ,"VSWA/ICT/357, Date 1.10.2001 VSWA Ordinance 1961 "
"H.No.549 St.10 G-10/1, Islamabad. 051-2297585 ",33.6717693,73.01248559999999,"G-10/1 G 10/1 G-10, Islamabad, Islamabad Capital Territory, Pakistan","Association for Communities, Culture, Educational & Social Services. ","VSWA/ICT/277, Date 29.8.1997 VSWA Ordinance 1961 "
"Office No.2, 2nd Floor, Musarrat Arcade, G-11 Markaz, Islamabad. 051-2220904 ",33.6693215,72.9999393,"G-11 Markaz G 11 Markaz G-11, Islamabad, Islamabad Capital Territory, Pakistan",Association of People Living with HIV & AIDS ,"VSWA/ICT/524, Date 16-05-2008 VSWA Ordinance 1961 "
H.No.39/6-B St.70 G-7/1 Islamabad. ,33.7174349,73.0449289,"8 Street 70, F-8/3 F 8/3 F-8, Islamabad, Islamabad Capital Territory, Pakistan",Astore Employees Welfare Association. ,"VSWA/ICT/273, Date 22.7.1997 VSWA Ordinance 1961 "
No.1 Kashmir Plaza Blue Area Islamabad. 051-2274234 ,33.7234548,73.0839927,"Huma Plaza, AK Fazal-ul-Haq Rd, Block B, Blue Area, Islamabad, ICT, Pakistan",AWAKEN ,"VSWA/ICT/398, Date 10.9.2002 VSWA Ordinance 1961 "
"Shop No.3 Khan Market G-10/3 Islamabad., 051-2501220 ",33.68391,73.02042,"Street 50, G-10/3 G 10/3 G-10, Islamabad, Islamabad Capital Territory 44000, Pakistan",Awami Khidmat Society. ,"VSWA/ICT/353, Date 15.8.2001 VSWA Ordinance 1961 "
"Mian G.T Road, Rawat, Islamabad. ",33.6844202,73.04788479999999,"Islamabad, Islamabad Capital Territory, Pakistan",Baba Fazal-ud-Din Welfare Organization ,"VSWA/ICT/514, Date 04.10.2007 VSWA Ordinance 1961 "
"BPWO’s Complex Building, Rawal Town, Islamabad. 051-821728; 051- 446187 ",33.6866977,73.11873270000001,"Rawal Town, Islamabad, Islamabad Capital Territory, Pakistan",Business and Professional Women Organization (BPWO) ,"VSWA/ICT/441, Date 24.4.2004 VSWA Ordinance 1961 "
"No. 12-D , SNC Center , Fazal-e-Haq Road , Blue Area , Islamabad. 051- 2870890 ",33.7172931,73.07078,"Blue Area, Islamabad, Islamabad Capital Territory, Pakistan",Campaign Against Terrorism (CAT) ,"VSWA/ICT/499, Date 03.02..2007, VSWA Ordinance 1961 "
"Directorate of Welfare, PAF Complex, E-9 Islamabad. 920054675 ",33.719469,73.0139616,"E-9, Islamabad, Islamabad Capital Territory, Pakistan",Central Pakistan Air Force Retired Officers Associations( Central PAFROA) ,"VSWA/ICT/452, Date 14.10.2004 VSWA Ordinance 1961 "
Babar Market Chatta Bukhtawar Islamabad ,33.6616936,73.14381159999999,"Chak Shahzad, Islamabad, Islamabad Capital Territory, Pakistan",Chatta Bukhtawar Welfare Society ,"VSWA/ICT/371, Date 28.2.2002 VSWA Ordinance 1961 "
House No.208 Model Town Humak Islamabad ,33.5386527,73.148237,"Model Town Humak, Islamabad, Islamabad Capital Territory, Pakistan",Child Welfare Association. ,"VSWA/ICT/75, Date 18.12.1989 VSWA Ordinance 1961 "
"Flat No:125, Ist Floor, Posh Arcade, G-9 Markaz, Islamabad. ",35.7698832,71.7741103,"Chitrāl, Chitral, Khyber Pakhtunkhwa, Pakistan",Chitral Al-Karim Welfare & Development Organization ,"VSWA/ICT/449, Date 6.9.2004 VSWA Ordinance 1961 "
H.No.96 Khyban-e-Iqbal F-8/2 Islamabad. 051-20063224 ,33.7134591,73.0338865,"F-8/2 F 8/2 F-8, Islamabad, Islamabad Capital Territory, Pakistan",Citizen Welfare Association. ,"VSWA/ICT/335, Date 2.1.2000 VSWA Ordinance 1961 "
"Road, Islamabad.051-5825291; 0345- 5123791 ",33.6844202,73.04788479999999,"Islamabad, Islamabad Capital Territory, Pakistan",Programme (CLIP) ,6/9/2008 VSWA Ordinance 1961 
Model Town Humak Islamabad 051- 4911034 ,33.5386527,73.148237,"Model Town Humak, Islamabad, Islamabad Capital Territory, Pakistan",Da-ul-Uloom Al-Jamiat Abasia ,"VSWA/ICT/217, Date 28.1.1994 VSWA Ordinance 1961 "
"Dhoke Haji Abdul Hameed, Madina Town, Bharakau, Islamabad. ",33.5825672,73.1511872,"Madina Town, Islamabad, Islamabad Capital Territory, Pakistan",Daylight ,"VSWA/ICT/464,Date 7.2.2005 VSWA Ordinance 1961 "
"Deputy Commissioner Office, F-8 Markaz, Islamabad. ",33.6900212,73.05581049999999,"Aiwan-e-Sanat-o-Tijarat, Islamabad, Islamabad Capital Territory, Pakistan",Deputy Commissioner & its Attached Department Employees Welfare Association ,"VSWA/ICT/533, Date 7/10/2008 VSWA Ordinance 1961 "
"#.9-B, Aslam Market Aabpara Islamabad.051-2277733 ",33.6601929,72.97853529999999,"G-12, Islamabad, Islamabad Capital Territory, Pakistan",EHA Centre for Emergent Strategies ,"VSWA/ICT/472, Date 02.07.2005, VSWA Ordinance 1961 "
"H. No.236, St. # 45, F-11/3, Islamabad 051-2298708 ",33.6916162,72.99165339999999,"236 Street 45, F-11/3 F 11/3 F-11, Islamabad, Islamabad Capital Territory, Pakistan",Ehsas Foundation ,"VSWA/ICT/488, Date 18.03.2006 VSWA Ordinance 1961 "
House no.19 St.36 G-6/2 Islamabad. 051-2825234 ,33.7153321,73.0832708,"Street 36, G 6/2 G-6, Islamabad, Islamabad Capital Territory, Pakistan",Ever Green Organization ,"VSWA/ICT/378, Date 13.5.2002 VSWA Ordinance 1961 "
"#.2, Opp:Daewoo Booking Office F-8 Markaz, Islamabad. ",33.6844202,73.04788479999999,"Islamabad, Islamabad Capital Territory, Pakistan",Fahmida Memorial Welfare Foundation ,"VSWA/ICT/463, Date 4.2.2005 VSWA Ordinance 1961 "
No.9-C Scheme II Park Road Chakshazad Islamabad ,33.6715556,73.146428,"Park Rd, Islamabad, Islamabad Capital Territory, Pakistan",FAP ,"VSWA/ICT/392, Date 4.9.2002 VSWA Ordinance 1961 "
"H.No. 2039, St.No. 10, Barma Town, Lehtrar Road, Islamabad 0333- 5344843 ",39.6172063,-8.6521422,"Fátima, 2495 Fátima, Portugal",Fatima Welfare Society ,"VSWA/ICT/482, Date 27.12.2005, VSWA Ordinance 1961 "
"H# 18, Gomal Road, E-7, Islamabad. 051-2275205 ",33.7050591,73.05042759999999,"Ibn-e-Sina Rd, G 8/3 G-8, Islamabad, Islamabad Capital Territory, Pakistan",Friends of PIMS (FOP) ,"VSWA/ICT/429, Date 15.1.2004 VSWA Ordinance 1961 "
Kot Hathial Shumali B.Kau Islamabad ,33.7204997,73.0405277,"Islamabad Capital Territory, Pakistan",Friends Welfare Society ,"VSWA/ICT/153, Date 5.5.1992 VSWA Ordinance 1961 "
Noor Pur Shahan Muslim Colony Bari Imam Islamabad. ,33.737029,73.1098806,"Muslim Colony Nurpur Shahan, Islamabad, Islamabad Capital Territory, Pakistan",Frontier Welfare Committee ,"VSWA/ICT/118, Date 16.7.1991 VSWA Ordinance 1961 "
"Office No.8, First Floor, Mehmood Plaza, Fazl-e-Haq Road, Blue Area, Islamabad. 051-2100341 ",33.7144,73.06671,"Ali Complex, AK Fazal-ul-Haq Rd, Block G, Blue Area, Islamabad, ICT, Pakistan",Global Peace Pioneers ,"VSWA/ICT/530, Date 6/9/2008 VSWA Ordinance 1961 "
"Flat # 10, Block 12-E, Jinnah Super F- 7 Markaz, Islamabad. ",33.7235293,73.0596724,"College Rd, F 7/3 F-7, Islamabad, Islamabad Capital Territory, Pakistan",Global Vision Organization ,"VSWA/ICT/540, Date 7/3/2009 VSWA Ordinance 1961 "
Sharifabad Tarlai Kalan Islamabad. 0300-5049485 ,33.6423518,73.1511872,"Tarlai Kalan, Islamabad, Islamabad Capital Territory, Pakistan",Gulistan Welfare Society ,"VSWA/ICT/367, Date 26.1.2002 VSWA Ordinance 1961 "
House No.24 Grid Station Road Bharakau Islamabad. 051-2231829 ,33.6844202,73.04788479999999,"Islamabad, Islamabad Capital Territory, Pakistan",Gum-Gusar ,"VSWA/ICT/364, Date 8.1.2002 VSWA Ordinance 1961 "
No.3&4 Mezzanine Floor Kashmir Plaza Blue Area Islamabad.051- 2871533 ,33.7234548,73.0839927,"Huma Plaza, AK Fazal-ul-Haq Rd, Block B, Blue Area, Islamabad, ICT, Pakistan",Ham Kadam ,"VSWA/ICT/393, Date 4.9.2002 VSWA Ordinance 1961 "
"H.No.15-B School Road F-7/1, Islamabad.051-2824350 ",33.7211322,73.0582022,"6 Bhittai Rd, F-7 Markaz F 7 Markaz F-7, Islamabad, Islamabad Capital Territory 44000, Pakistan",Hayat Orthodontic and Dental Complex ,"VSWA/ICT/389, Date 24.8.2002 VSWA Ordinance 1961 "
"Dhoke Jillani, Data Ganj Bakhsh Road, Near Poultry Farm, Bharakau, Islamabad. 051-2550470 ",33.6439812,73.08187509999999,"Data Ganj Bakhsh Road, Rawalpindi, Punjab, Pakistan",Hayat-e-Nau ,"VSWA/ICT/525, Date 4/6/2008 VSWA Ordinance 1961 "
"No.6 Park Pavilion Plaza, 65-E, Fazal- e-Haq Road Blue Area Islamabad. 051-827986 ",33.7185255,73.07457579999999,"Fazal Plaza, Plot 50, AKM Fazal-ul-Haq Rd, Block E, Blue Area, G 6/2 Blue Area, Islamabad, Islamabad Capital Territory 44000, Pakistan",Hearts Welfare Society. ,"VSWA/ICT/352, Date 15.8.2001 VSWA Ordinance 1961 "
"Chattha Bakhtawar, Park Road, Chak Shahzad, Islamabad. ",33.6616936,73.14381159999999,"Chak Shahzad, Islamabad, Islamabad Capital Territory, Pakistan",Hosla Welfare Organization. ,"VSWA/ICT/504, Date 19-4-2007 VSWA Ordinance 1961 "
"#.1-A, Mezzanine Floor, Golden Plaza, Blue Area, Islamabad. 051- 2826843 ",33.7206831,73.0785209,"AKM Fazal-ul-Haq Rd, Block D, Blue Area, G 6/2 Blue Area, Islamabad, Islamabad Capital Territory 44000, Pakistan",Human Concern Pakistan ,"VSWA/ICT/386, Date 13.7.2002 VSWA Ordinance 1961 "
"Mughal Market, Rural Markaz, P.O. Tarlai, Islamabad. 051-2241264 ",33.6844202,73.04788479999999,"Islamabad, Islamabad Capital Territory, Pakistan",Human Friends Welfare Society ,"VSWA/ICT/470, Date 13.05.2005, VSWA Ordinance 1961 "
"H.No.496 St.15, I-10/2 Islamabad.051-448491 ",33.6492027,73.0295661,"496 Street 15, I-10/2 I 10/2 I-10, Islamabad, Islamabad Capital Territory, Pakistan",Human Resource Development Agency (HRDA). ,"VSWA/ICT/279, Date 15.12.1997 VSWA Ordinance 1961 "
House No.64 Khaban-e-Suherwardy G-6/4 Islamabad. 0514840331 ,33.7128347,73.0921755,"G-6/4 G-6, Islamabad, Islamabad Capital Territory, Pakistan",Human Rights Support Programme ,"VSWA/ICT/412, Date 27.8.2002 VSWA Ordinance 1961 "
"#.6, Block-12-C, Jinnah Super Market, Islamabad. 051-2650277 ",33.729408,73.0749822,"School Rd, F-6 Markaz F 6 Markaz F-6, Islamabad, Islamabad Capital Territory 44000, Pakistan","Humanity, Equality, Love, Patience ","VSWA/ICT/451, Date 22.9.2004 VSWA Ordinance 1961 "
House No.1 School Road Kurang Valley B.Kau Islamabad. 051- 7112385 ,33.7211322,73.0582022,"6 Bhittai Rd, F-7 Markaz F 7 Markaz F-7, Islamabad, Islamabad Capital Territory 44000, Pakistan",ICAN (Islamabad Christian Against Narcotics) ,"VSWA/ICT/313, Date 23.10.1999 VSWA Ordinance 1961 "
Farm No.6 Kurri Road Old Park Road Chakshahzad Islamabad ,33.6331578,73.0872339,"Kurri Rd, Rawalpindi, Punjab, Pakistan",Inter Help Foundation (IHF) ,"VSWA/ICT/369, Date 1.3.2002 VSWA Ordinance 1961 "
"Flat No. 20 , Block No. 12-F, Medicine Plaza, G-8 Markaz , Ibd.051-2855983 ",33.6967477,73.0501203,"G-8 Markaz G-8, Islamabad, Islamabad Capital Territory, Pakistan",Interfaith League Against Poverty ,"VSWA/ICT/492, Date 12.08.2006, VSWA Ordinance 1961 "
"#-B.1, Al Azam Plaza G-8 Markaz, Islamabad. ",33.6957648,73.0506309,"Al-Azam Plaza, Shop 1, G-8 Markaz, G-8, G 8 Markaz G-8, Islamabad, Islamabad Capital Territory 44000, Pakistan",International Gospel Association ,"VSWA/ICT/460, Date 4.1.2005 VSWA Ordinance 1961 "
Opposite Shaheen Gargo Terminal Islamabad Airport Islamabad ,33.6087819,73.1038507,"Benazir Bhutto International Airport, Airport Road، Rawalpindi, Punjab 46-200, Pakistan",International Human Rights Forum ,"VSWA/ICT/332, Date 10.11.2000 VSWA Ordinance 1961 "
"Village Peja, P.O Bimber Trar, Ibd. 0300-5190271 ",42.6592868,20.2887358,Peja,Iqra Welfare Organization ,"VSWA/ICT/485, Date 04.03.2006, VSWA Ordinance 1961 "
Noor Pur Shahan Muslim Colony Bari Imam Islamabad. 051-2245043 ,33.737029,73.1098806,"Muslim Colony Nurpur Shahan, Islamabad, Islamabad Capital Territory, Pakistan",Islah-e-Moashra Committee ,"VSWA/ICT/15, Date 10.4.1986 VSWA Ordinance 1961 "
Quarter No.9 Block 35-A G-8/1 Islamabad. ,33.6933765,73.05173500000001,"G 81, G-8/1 G 8/1 G-8, Islamabad, Islamabad Capital Territory, Pakistan",Islahi Committee CDA Block ,"VSWA/ICT/83, Date 28.3.1990 VSWA Ordinance 1961 "
"Village Irfanabad, Taramri, Islamabad. 0321-5543477 ",33.6381541,73.1600377,"Taramri, Islamabad, Islamabad Capital Territory, Pakistan",Islahi Committee Irfanabad ,"VSWA/ICT/519, Date 23-02-2008 VSWA Ordinance 1961 "
"Sultan Foundation, Farash Town Lehtrar Road, Islamabad.051-202361 ",33.6449034,73.1901614,"Lehtrar Road, Farash, Islamabad, Islamabad Capital Territory, Pakistan",Islamabad Automobile Association. ,"VSWA/ICT/267, Date 23.12.1996 VSWA Ordinance 1961 "
"IFWA Centre, St:38, F-7/1, Islamabad. ",33.7156606,73.0542889,"Street 38, F-7/1 F 7/1 F-7, Islamabad, Islamabad Capital Territory, Pakistan",Islamabad Foreign Women Association ,"VSWA/ICT/278, Date 31.10.1997 VSWA Ordinance 1961 "
Shop No.6 Block 20 Civic Center Melody Islamabad. 051-273427-317 ,33.6844202,73.04788479999999,"Islamabad, Islamabad Capital Territory, Pakistan",Islamabad Hair Dresser & Beautician Welfare Association. ,"VSWA/ICT/259, Date 26.6.1996 VSWA Ordinance 1961 "
"No.16, Block 20-B, Blair Plaza, G-8 Markaz, Islamabad. 0301-5428781 ",33.6979916,73.0479677,"Blair Plaza, G-8 Markaz, G-8, G 8 Markaz G-8, Islamabad, Islamabad Capital Territory 44000, Pakistan",Islamabad Hzekiel Munawar Welfare Association ,"VSWA/ICT/480, Date 29.11.2005, VSWA Ordinance 1961 "
H.No.1107 St.67 G-9/4 Islamabad.051-2855715 ,33.6907749,73.04138189999999,"1107 Street 67, G-9/4 G 9/4 G-9, Islamabad, Islamabad Capital Territory, Pakistan",Islamabad Rozgar Markaz ,"VSWA/ICT/365, Date 12.1.2002 VSWA Ordinance 1961 "
"Jamia Masjid Ali-ul-Murtaza, Ali Market, F-11/1, Islamabad. 0300- 8548816 ",33.6778223,72.98441629999999,"Street 9, F 11/1 F-11, Islamabad, Islamabad Capital Territory, Pakistan",Islamabad Social Welfare Association ,"VSWA/ICT/498, Date 9/1/2007 VSWA Ordinance 1961 "
"Room No.14,19 & 20 Basement Malik Plaza F-8 Markaz, Islamabad 051- 2281932 ",33.7116672,73.0405741,"Malik Plaza, Plot 16-C, F-8 Markaz, F-8, Islamabad, ICT, Pakistan",Islamabad Society for Preservation of Blindness Islamabad Pakistan. ,"VSWA/ICT/93, Date 20.2.1991 VSWA Ordinance 1961 "
Islamabad Club Islamabad ,33.7053308,73.10584899999999,"Near Kashmir Chowk، Main Murree Rd، Islamabad Club, Islamabad, Islamabad Capital Territory, Pakistan",Islamabad Squish Rackets Association ,"VSWA/ICT/173, Date 4.10.1992 VSWA Ordinance 1961 "
Shop No.26 Food Market Near Masjid Al-Habib G-7/3 Islamabad. ,33.703483,73.07132399999999,"Markaz G-7 , Near Daewoo Shuttle Service Terminal، G 7 Markaz G-7, Islamabad, Islamabad Capital Territory, Pakistan",Islamabad Welfare Society. ,"VSWA/ICT/122, Date 11.8.1991 VSWA Ordinance 1961 "
"Village Irfanabad, Tarlai, Islamabad. ",33.6424851,73.13363199999999,"Java Rd, Burma Town, Islamabad, Islamabad Capital Territory, Pakistan",Isllahi Committee Irfanabad ,"VSWA/ICT/519Date 14.05.1988, VSWA Ordinance 1961 "
Kot Hathial Shumali B.Kau Islamabad ,33.7204997,73.0405277,"Islamabad Capital Territory, Pakistan",Itehad Welfare Society ,VSWA/ICT/150 Date 17.3.1992 VSWA Ordinance 1961 
H.No.2306 I-10/1 -4 Islamabad. 051- 410828 ,33.6425148,73.0361003,"Sector I-10/1 I 10/1 I-10, Islamabad, Islamabad Capital Territory, Pakistan",Itehad Welfare Society ,VSWA/ICT/76 Date 27.12.1989 VSWA Ordinance 1961 
Office #23 1st Floor Liberty Shopping Center Aabpara G-6 Islamabad 051- 2852009 ,33.6844202,73.04788479999999,"Islamabad, Islamabad Capital Territory, Pakistan",Jamiat-ul-Quresh Meat Welfare Association. ,VSWA/ICT/249 Date 5.3.1996 VSWA Ordinance 1961 
"Suit No.5, 2nd Floor Masco Plaza Blue Area, Islamabad. 051-275285-6 ",33.6080202,73.0136928,"N-5, Islamabad, Islamabad Capital Territory, Pakistan",Jat Welfare Association. ,VSWA/ICT/285 Date 29.7.1998 VSWA Ordinance 1961 
"Office #5-A, Block No.21-N, Melody Market, G-6 Markaz, Islamabad.051- 2603303 ",33.7166521,73.0855357,"G-6 Markaz G 6 Markaz G-6, Islamabad, Islamabad Capital Territory, Pakistan",JOKE Welfare Organization ,VSWA/ICT/532 Date 23-09-2008 VSWA Ordinance 1961 
Noor Pur Shahan Muslim Colony Bari Imam Islamabad. 051-2245043 ,33.737029,73.1098806,"Muslim Colony Nurpur Shahan, Islamabad, Islamabad Capital Territory, Pakistan",Kashmir Public Welfare Society. ,VSWA/ICT/117Date 20.6.1991 VSWA Ordinance 1961 
Village Thanda Pani Lehtrar Road Islamabad ,33.6469923,73.2188377,"Lehtrar Road, Thanda Pani, Islamabad, Islamabad Capital Territory, Pakistan",Kashmir Welfare Society ,VSWA/ICT/198Date 16.3.1993 VSWA Ordinance 1961 
"H.No.378 St. 57 I-10/1, Islamabad ",33.6425148,73.0361003,"Sector I-10/1 I 10/1 I-10, Islamabad, Islamabad Capital Territory, Pakistan",Khattak Welfare Association. ,VSWA/ICT/299Date 11.3.1999 VSWA Ordinance 1961 
"Opp: Petrol Pump PSO Bharakau, Islamabad. ",33.6844202,73.04788479999999,"Islamabad, Islamabad Capital Territory, Pakistan",Khidmat Gar Foundation ,VSWA/ICT/432Date 23.1.2004 VSWA Ordinance 1961 
"Opp: Petrol Pump PSO Bharakau, Islamabad. ",33.6844202,73.04788479999999,"Islamabad, Islamabad Capital Territory, Pakistan",Khidmatgar Foundation ,VSWA/ICT/432Date 23.1.2004 VSWA Ordinance 1961 
"Village Dorary, Tarnol, Islamabad. 051-2217409 ",33.6555905,72.9076669,"Tarnol, Islamabad, Islamabad Capital Territory, Pakistan",Kiran Rajput Welfare and Social Organization. ,VSWA/ICT/444Date 24.7.2004 VSWA Ordinance 1961 
Plot No.4 Model Town Humak Islamabad ,33.5400015,73.1443894,"Street Number 4, Model Town Humak, Islamabad, Islamabad Capital Territory, Pakistan",Lajpal Social Programme ,VSWA/ICT/391Date 4.9.2002 VSWA Ordinance 1961 
"H# 161, Madni Mohallah, Bharakau, Islamabad. ",33.6844202,73.04788479999999,"Islamabad, Islamabad Capital Territory, Pakistan",Madni Welfare Society. ,VSWA/ICT/468Date 4.4.2004 VSWA Ordinance 1961 
"203 AlMustafa Apartments, G-8/3, Islamabad. ",33.6974912,73.0494217,"Markaz Rd, G-8 Markaz G 8 Markaz G-8, Islamabad, Islamabad Capital Territory 44000, Pakistan",Marriaum Foundation ,VSWA/ICT/446Date 29.7.2004 VSWA Ordinance 1961 
"H: No:12, Ummair Plaza, I-10 Markaz, Islamabad. ",33.6425148,73.0361003,"Sector I-10/1 I 10/1 I-10, Islamabad, Islamabad Capital Territory, Pakistan",Mehmar-e-Watan Welfare Association. ,VSWA/ICT/466Date 23.2.2005 VSWA Ordinance 1961 
"Village Mera Bhagwal, Bharakau, Islamabad. ",33.0738276,72.5958971,"Bhagwal, Chakwal, Punjab, Pakistan",Mera Hamdard Welfare Organization ,VSWA/ICT/465Date 21.2.2005 VSWA Ordinance 1961 
"Plot No.954-943, Tumair, Bharakau,Islamabad. ",33.7084722,73.2467174,"Simly Dam Road, Pind Bagwal, Islamabad, Islamabad Capital Territory, Pakistan",Moja’s Shelter. ,VSWA/ICT/506Date 14-5-2007 VSWA Ordinance 1961 
"#.2 Ground Floor, 73/E, G.D. Arcade , Fazal Haq Road, Islamabad. 051-820769 ",33.7128408,73.0635401,"AK Fazal-ul-Haq Rd, Block H, Blue Area, Islamabad, ICT, Pakistan",Move Against Backwardness. ,VSWA/ICT/323 Date 12.05.2000 VSWA Ordinance 1961 
"H.No.13 Basement Main Double Road, F-11/3, Islamabad. ",33.7003919,72.980952,"H# 581, St# 36, E-11, 3 Main NPF Double Rd, MPCHS E 11/2 E-11, Islamabad, Islamabad Capital Territory 44000, Pakistan",Mumta Rural Mother & Child Welfare Organization ,VSWA/ICT/136Date 14.11.1991 VSWA 
"H#149, St:60, I-8/3, Islamabad. ",33.6746293,73.07337679999999,"Street 60, I-8/3 I 8/3 I-8, Islamabad, Islamabad Capital Territory, Pakistan",Muslim Hands International ,VSWA/ICT/427Date 8.12.2003 VSWA Ordinance 1961 
"H # 141, St 7, F-11/1, Islamabad ",33.6774871,72.9825274,"141 Street 7, F-11/1 F 11/1 F-11, Islamabad, Islamabad Capital Territory, Pakistan",Nargis Human Development & Welfare Foundation ,VSWA/ICT/479Date 29-11-2005 VSWA Ordinance 1961 
"Flat :1, 2nd Floor, Pervaiz Plaza, I-10 Markaz, Islamabad. ",33.6459541,73.0358042,"Pervaiz Plaza, Korang Rd, I-10-1 Markaz, I-10, I 10 Markaz I-10, Islamabad, Islamabad Capital Territory 44000, Pakistan",National Hear Dresser and Beauticians Organization.(NHBO) ,"VSWA/ICT/448Date.2 8.8.2004, VSWA Ordinance 1961 "
"9-E Rizwan Plaza, Blue Area, Islamabad. ",33.7121019,73.0615574,"11D Jinnah Ave, Block H G 7/2 Blue Area, Islamabad, Islamabad Capital Territory, Pakistan",National Society for the Deaf ,VSWA/ICT/49Date 11.1.1990 VSWA Ordinance 1961 
"#786, Paracha Mention, School Road, Shah Allah Ditta, Islamabad. ",33.7130956,72.9209564,"Shah Allah Ditta Islamabad, Islamabad Capital Territory, Pakistan",Naveed-e-Nau Foundation ,VSWA/ICT/422Date 23.10.2003 VSWA Ordinance 1961 
"Community Centre 48-Quarters, Sector G-7/3-2, Islamabad. ",33.6844202,73.04788479999999,"Islamabad, Islamabad Capital Territory, Pakistan",Naveed-e-Sehar. ,VSWA/ICT/513Date 30-8-2007 VSWA Ordinance 1961 
H.No.714 St. 70 I-8/3 Islamabad ,33.6710566,73.0764574,"714 Street 70, I-8/3 I 8/3 I-8, Islamabad, Islamabad Capital Territory, Pakistan",Noble Deeds Foundation ,VSWA/ICT/295Date 28.10.1998 VSWA Ordinance 1961 
Khanna Dak Near Federal Public School Lehtrar Road Islamabad ,33.7204997,73.0405277,"Islamabad Capital Territory, Pakistan",Pak Kashmir Quresh Welfare Council ,VSWA/ICT/284Date 24.6.1998 VSWA Ordinance 1961 
"Office #31, 1st floor Al Baber Centre, F-8 Markaz, Islamabad ",33.7115769,73.0397898,"F-8 Markaz F 8 Markaz F-8, Islamabad, Islamabad Capital Territory, Pakistan",Pak. Development Foundation ,VSWA/ICT/456Date 11.11.2004 VSWA Ordinance 1961 
St.54 France Colony F-7/4 Islamabad. ,33.7180689,73.0640131,"7 Street 54, F-7/4 F 7/4 F-7, Islamabad, Islamabad Capital Territory, Pakistan",Pak.United Christian Association. ,VSWA/ICT/410Date 2.5.2003 VSWA Ordinance 1961 
WAPDA Colony G-7/4 Islamabad Ph:815333 ,33.7093958,73.10333349999999,"Wapda Colony Islamabad Club, Islamabad, Islamabad Capital Territory, Pakistan",Pakistan Association Visually Handicapped ,VSWA/ICT/169Date 31.8.1992 VSWA Ordinance 1961 
"26, G-9 Markaz Islamabad. ",33.6876775,73.0338865,"G-9 Markaz G 9 Markaz G-9, Islamabad, Islamabad Capital Territory, Pakistan",Pakistan Blind Union ,VSWA/ICT/58Date 11.6.1989 VSWA Ordinance 1961 
"H#.56(FC) G-8/2, Islamabad. 051-822469 ",33.6980565,73.0449551,"G-8/2 G 8/2 G-8, Islamabad, Islamabad Capital Territory, Pakistan",Pakistan Christian Welfare Society ,VSWA/ICT/264Date 23.11.1996 VSWA Ordinance 1961 
"Flat No.1, 40-A Ramzan Plaza G-9 Markaz Islamabad. ",33.6889463,73.0344449,"Mangla Rd, G 9 Markaz G-9, Islamabad, Islamabad Capital Territory, Pakistan",Pakistan Foundation Fighting Blindness ,VSWA/ICT/350Date 17.7.2001 VSWA Ordinance 1961 
"Block 20-D Flat No.C Ist Floor G-8 Markaz, Islamabad. ",33.6844202,73.04788479999999,"Islamabad, Islamabad Capital Territory, Pakistan",Pakistan Mysthenic Welfare Organization ,VSWA/ICT/94Date 20.2.1991 VSWA Ordinance 1961 
Post Office Directorate G-8/4 Islamabad. ,33.6970032,73.0567611,"G-8/4 G 8/4 G-8, Islamabad, Islamabad Capital Territory, Pakistan",Pakistan Post Office Directorate General Welfare Society. ,VSWA/ICT/5Date 19.11.1985 VSWA Ordinance 1961 
16/6 Life Chemist Chand Plaza G-9 Markaz Islamabad. ,33.7299427,73.0763135,"F-6 Markaz F 6 Markaz F-6, Islamabad, Islamabad Capital Territory, Pakistan",Pakistan Quami Welfare Society. ,VSWA/ICT/152Date 27.3.1992 VSWA Ordinance 1961 
"Office No.1, Chaudhry Market, Tramri Chowk, Tarlai, Islamabad ",33.6474159,73.1645095,"08 Park Rd, Tamma, Taramri, Islamabad, Islamabad Capital Territory 44000, Pakistan",Paks Welfare Association ,VSWA/ICT/497Date 3/1/2007 VSWA Ordinance 1961 
Opposite Noori Hospital G-8/4 Islamabad ,33.6991819,73.05484469999999,"Hanna Rd, G 8/3 G-8, Islamabad, Islamabad Capital Territory, Pakistan",Parent Teachers Association of F.G.School National Training Center for Dis. Persons. ,VSWA/ICT/50Date 18.1.1989 VSWA Ordinance 1961 
"St.11 Rooh Afza Market G-7/2, ",33.7059754,73.06266389999999,"G-7/2 G 7/2 G-7, Islamabad, Islamabad Capital Territory, Pakistan",Parent Teach. Astion of F.G. ,VSWA/ICT/36Date 
Islamabad ,33.6701775,73.0493825,"H-9/4 H 9/4 H-9, Islamabad, Islamabad Capital Territory, Pakistan",Special Edn School for Visually Handicapped Children ,20.8.1988 VSWA Ordinance 1961 
"Plot No.27 H-9, Islamabad Ph:9257435 ",33.6693472,73.0434794,"H-9, Islamabad, Islamabad Capital Territory, Pakistan",Parent Teachers Association of Helen Killer Special Education Center. ,VSWA/ICT/43Date 8.11.1988 VSWA Ordinance 1961 
NIH St.9 G-8/2 Islamabad ,33.6980565,73.0449551,"G-8/2 G 8/2 G-8, Islamabad, Islamabad Capital Territory, Pakistan",Patient Welfare Society ,VSWA/ICT/348Date 25.6.2001 VSWA Ordinance 1961 
PIMS Islamabad. ,33.7050591,73.05042759999999,"Ibn-e-Sina Rd, G 8/3 G-8, Islamabad, Islamabad Capital Territory, Pakistan",Patient Welfare Society. ,VSWA/ICT/29Date 16.9.1988 VSWA Ordinance 1961 
"Flat # 2, Ground Floor, Block 26, PHA, Sector G-7/1, Islamabad. 051- 2539179 ",33.7052406,73.0670909,"G-7, Islamabad, Islamabad Capital Territory, Pakistan",PAYAAM (Message for Happiness) ,VSWA/ICT/539Date 17-1-2009 VSWA Ordinance 1961 
"H.No.291, St.80, G-11/2, Islamabad. ",33.6700558,72.9944822,"Street 80, G-11/2 G 11/2 G-11, Islamabad, Islamabad Capital Territory, Pakistan",PEACE World Wide ,VSWA/ICT/401-ADate 8.11.2002 VSWA Ordinance 1961 
PIMS Islamabad ,33.7050591,73.05042759999999,"Ibn-e-Sina Rd, G 8/3 G-8, Islamabad, Islamabad Capital Territory, Pakistan",PIMS Nursing Association. ,VSWA/ICT/228Date 5.6.1994 VSWA Ordinance 1961 
"Office #2-A, Potohar Plaza, Blue Area Islamabad. ",33.7172931,73.07078,"Blue Area, Islamabad, Islamabad Capital Territory, Pakistan",Potohar Area Water PartnershipPotohar Area Water Partnership ,VSWA/ICT/459Date 17.12.2004 VSWA Ordinance 1961 
"C/O Shifa Hospital H-8/4, Islamabad ",33.6790023,73.0680138,"Pitras Bukhari Road, Sector H-8/4، H 8/4 H-8, Islamabad, Islamabad Capital Territory, Pakistan",Potohar Mental Health Association ,VSWA/ICT/328Date 19.2.2000 VSWA Ordinance 1961 
"Mezzanine Floor, 70-W, Al Malik Complex, Blue Area, Islamabad. ",33.7121019,73.0615574,"11D Jinnah Ave, Block H G 7/2 Blue Area, Islamabad, Islamabad Capital Territory, Pakistan",Potohar Organization for Development Assistance(PODA) ,VSWA/ICT/435Date 19.2.2004 VSWA Ordinance 1961 
"H# 2, Ghousia Plaza, New Shakrial , Islamabad ",33.7036287,72.97971179999999,"22 Street 51, MPCHS E-11/3 MPCHS E 11/2 E-11, Islamabad, Islamabad Capital Territory, Pakistan",Prestige Welfare Society ,"VSWA/ICT/489Date 14.05.1988, VSWA Ordinance 1961 "
6 Pirwadhai More 121 stand I-11/4 Islamabad ,33.6286907,73.04223069999999,"Pirwadhai Rd, Rawalpindi, Punjab, Pakistan",Public Transport Welfare Committee ,VSWA/ICT/351Date 26.7.2001 VSWA Ordinance 1961 
"St.#20. Hansa Colony, G-8/1, Islamabad ",33.6927548,73.052261,"Street 20, G-8/1 G 8/1 G-8, Islamabad, Islamabad Capital Territory, Pakistan",Qadam Development Organization ,"VSWA/ICT/483Date 14.05.1988, VSWA Ordinance 1961 "
Khanna Dak Islamabad. ,33.7204997,73.0405277,"Islamabad Capital Territory, Pakistan",Qamoos Welfare Center ,VSWA/ICT/339Date 28.2.2001 VSWA Ordinance 1961 
"Office No.3, Fraz Plaza G-9 Markaz Islamabad. ",33.6876775,73.0338865,"G-9 Markaz G 9 Markaz G-9, Islamabad, Islamabad Capital Territory, Pakistan",Raah Legal Aid Center. ,VSWA/ICT/368Date 21.2.2002 VSWA Ordinance 1961 
36/1 G-8/4 Islamabad. ,33.6999505,73.0581035,"Plot 6/1, G-8/4 G 8/4 G-8, Rawalpindi/Islamabad, Islamabad, Islamabad Capital Territory, Pakistan",Rajput Welfare Organization. ,VSWA/ICT/193 Date 18.2.1993 VSWA Ordinance 1961 
"Basement #4, Block 4, Najam Market F-8/4, Islamabad 051-2852946 ",33.7146349,73.03348439999999,"Block 5, St 21, Madina Market F-8/2, F-8, ICT، F 8/2 F-8, Islamabad, Islamabad Capital Territory, Pakistan",RAYS ,VSWA/ICT/478 Date 29-11-2005 VSWA Ordinance 1961 
"H# 83, St; 111, Sector G-11/3,Islamabad. ",33.6739279,73.0034374,"Street 111, G-11/3 G 11/3 G-11, Islamabad, Islamabad Capital Territory, Pakistan",Resident Welfare Society. ,VSWA/ICT/467Date 9.3.2005 VSWA Ordinance 1961 
"Unit # 686, Upper Storey, Block-3, Aabpara Market, Islamabad. 0333- 5745107; 051-2826871 ",33.707011,73.0877455,"699 Khayaban-e-Suhrwardy, Barakahu G 6/1 G-6, Islamabad, Islamabad Capital Territory, Pakistan",Retail Fruit & Vegetable Shopkeepers Welfare Association ,VSWA/ICT/542Date 14-4-2009 VSWA Ordinance 1961 
"House No.19-D St. 58 G-6/4, Islamabad 051-810404 ",33.7137923,73.0906608,"Street 58, G-6/4 G 6/4 G-6, Islamabad, Islamabad Capital Territory, Pakistan",Retired Govt. Servant Welfare Association ,VSWA/ICT/180Date 16.12.1992 VSWA Ordinance 1961 
"Flat No.1, Street No.16, Javed Market, G-6 /2, Islamabad. ",33.6543433,72.8913352,"Street Number 16, E 16/3 Cabinet Division Employees CHS Cabinet Division Employees CHS, Islamabad, Islamabad Capital Territory, Pakistan",RIGHT ,VSWA/ICT/526Date 8/8/2008 VSWA Ordinance 1961 
Village Hardogher Humak Islamabad ,52.8873011,21.391082,"06-230 Różan, Poland",Rozan Welfare Association. ,VSWA/ICT/342Date 24.5.2001 VSWA Ordinance 1961 
"Mohallah Chaudrian, near Petrol Pump, Bharakau, Islamabad. ",33.6844202,73.04788479999999,"Islamabad, Islamabad Capital Territory, Pakistan",Rural Area Dev. Organization(RADO) ,VSWA/ICT/418Date 13.9.2003 VSWA Ordinance 1961 
"RDF Center Mauve Area G-9/1, Islamabad. Ph:2260373/2251492 ",33.68201,73.0394209,"G-9 Mauve Area G-9, Islamabad, Islamabad Capital Territory, Pakistan",Rural Development Foundation of Pakistan. ,VSWA/ICT/63Date 2.8.1989 VSWA Ordinance 1961 
"8-A/B, Mezzanine Muzzafar Chamber, 82-West Blue Area Islamabad. ",33.6844202,73.04788479999999,"Islamabad, Islamabad Capital Territory, Pakistan",Rural Initiative for Global Humanity through Systemization (RIGHTS) ,VSWA/ICT/411Date 14.5.2003 VSWA Ordinance 1961 
Tarlai Kalan Islamabad ,33.6423518,73.1511872,"Tarlai Kalan, Islamabad, Islamabad Capital Territory, Pakistan",Rural Social Welfare Society. ,VSWA/ICT/375Date 26.3.2002 VSWA Ordinance 1961 
H.No.18 Park Road F-8/2 Islamabad. ,33.7134591,73.0338865,"F-8/2 F 8/2 F-8, Islamabad, Islamabad Capital Territory, Pakistan",Rural Urban Overseas Pakistanis Education & Welfare Society ,VSWA/ICT/355Date 10.9.2001 VSWA Ordinance 1961 
"House No.577, Street No.10, Phase-I, Farash Town, Islamabad. ",33.648073,73.1873244,"Farash, Islamabad, Islamabad Capital Territory, Pakistan",Rural Welfare Society Islamabad ,VSWA/ICT/528Date 8/8/2008 VSWA Ordinance 1961 
"Flat No:1, Plot No:10, Jalil-III Plaza, I- 9 Markaz, Islamabad. ",33.6566613,73.0558388,"I-9 Markaz I 9 Markaz I-9, Islamabad, Islamabad Capital Territory, Pakistan",S.G.E. Welfare Association. ,VSWA/ICT/462Date 27.1.2005 VSWA Ordinance 1961 
"Simly Dam Road, Athal Chow, Bharakau, Islamabad ",33.7299013,73.2266729,"Simly Dam Road, Athal, Islamabad, Islamabad Capital Territory, Pakistan",Sachal Sarmast Welfare Association ,VSWA/ICT/502Date 5/3/2007 VSWA Ordinance 1961 
"Village Frash Town, Islamabad. ",33.6481926,73.20281,"Frash Town, Islamabad, Islamabad Capital Territory, Pakistan",Sadqeen Welfare Society ,"VSWA/ICT/475Date 14.05.1988, VSWA Ordinance 1961 "
"H#.1, CTRL Labour Colony, H-9/4, Islamabad. ",33.6701775,73.0493825,"H 9/4 H-9, Islamabad, Islamabad Capital Territory, Pakistan",Saghri Welfare Society ,VSWA/ICT/421Date 10.10.2003 VSWA Ordinance 1961 
"#H block –20 D, G-8 Markaz, Islamabad. ",33.6989167,73.04822949999999,"Unit 1 Block No 20 D G-8 Markaz, G 8 Markaz G-8, Islamabad, Islamabad Capital Territory 44000, Pakistan",SAHAR ,VSWA/ICT/436Date 21.2.2004 VSWA Ordinance 1961 
H.No.917 St.2 I-10/2 Islamabad. ,33.6498303,73.03019680000001,"I-10/2 I 10/2 I-10, Islamabad, Islamabad Capital Territory, Pakistan",Sahara Women Welfare Society. ,VSWA/ICT/275Date 29.8.1997 VSWA Ordinance 1961 
"No.13 1st Floor Al-Babar Center F-8 Markaz, Islamabad. ",33.7123968,73.0373573,"Al-Babar Centre, Office 13, 1st Floor, Johar Rd, F-8 Markaz, F-8, Islamabad, ICT, Pakistan",Sahil ,VSWA/ICT/270Date 12.4.1997 VSWA Ordinance 1961 
"1, Akbar Khan Town, Sitara Market, New Shakrial, Town, Islamabad. ",33.70487320000001,73.0693043,"G 7 Markaz G-7, Islamabad, Islamabad Capital Territory, Pakistan",Saiban Khawateen Welfare Society. ,VSWA/ICT/443Date 17.7.2004 VSWA Ordinance 1961 
Block 5-P Sitara Market G-7 Markaz Islamabad ,33.70487320000001,73.0693043,"G 7 Markaz G-7, Islamabad, Islamabad Capital Territory, Pakistan",Senior Citizen Foundation of Pakistan ,VSWA/ICT/19 Date 5.2.1987 VSWA Ordinance 1961 
"Suit No.5-B, 111 One Plaza Blue Area, Islamabad. ",33.6012945,73.208834,"Blue Area W, Gulberg Residencia Islamabad, Islamabad Capital Territory, Pakistan",Shaheeno’s Green Land ,VSWA/ICT/374Date 18.3.2002 VSWA Ordinance 1961 
House No.3 St.1 Nai Abadi B.Kau Islamabad ,33.7410893,73.0816193,"3 Street 1, F-6/3 F 6/3 F-6, Islamabad, Islamabad Capital Territory, Pakistan",Shama Welfare Center ,VSWA/ICT/388Date 21.8.2002 VSWA Ordinance 1961 
"Mezzanine NHSP Plaza, 83-S Blue Area, Islamabad 051-2254186; 0320- 490790 ",33.715733,73.0688706,"NHSP Plaza AK Fazal-ul-Haq Rd, Block F G 7/3 Blue Area, Islamabad, Islamabad Capital Territory 44000, Pakistan",Shaoor ,VSWA/ICT/382 Date 01.06.2002 VSWA Ordinance 1961 
"Shop No.13 Sector G-6/1-3, Islamabad ",33.7131561,73.0847979,"G-6, Islamabad, Islamabad Capital Territory, Pakistan",Shop Keepers Association. ,VSWA/ICT/266Date 23.12.1996 VSWA Ordinance 1961 
"19, Atta Turk Avenue, G-5/1, Islamabad Ph:289253 ",33.7167908,73.1010282,"G-5/1 G-5, Islamabad, Islamabad Capital Territory, Pakistan",Sir Syed Memorial Society. ,VSWA/ICT/72Date 14.11.1989 VSWA Ordinance 1961 
"#.21, 1ST floor, Muhammadi Plaza, Blue Area, Islamabad. ",33.7172931,73.07078,"Blue Area, Islamabad, Islamabad Capital Territory, Pakistan",Social Alliance for Fundamental Rights and Education. (SAFE) ,VSWA/ICT/450Date 6.9.2004 VSWA Ordinance 1961 
"Flat No.10 Zahid Plaza,I-11 Markaz, Islamabad. ",33.646748,73.03756480000001,"Zahid Plaza, Korang Rd, I-10 Markaz, I-10, I 10 Markaz I-10, Islamabad, Islamabad Capital Territory 44000, Pakistan",Social Coordination Council of Pakistan. ,VSWA/ICT/167 Date 10.8.1992 VSWA Ordinance 1961 
House No.291 Model Village Chakshahzad Park Road Islamabad.051-9235566; 0300- 5161256 ,33.6715556,73.146428,"Park Rd, Islamabad, Islamabad Capital Territory, Pakistan",Social Welfare Clinic ,VSWA/ICT/201 Date 10.7.1993 VSWA Ordinance 1961 
"No.27, St.No.16, Block-A, Sector O-9, Islamabad. ",33.6844202,73.04788479999999,"Islamabad, Islamabad Capital Territory, Pakistan",Social Welfare Society. ,VSWA/ICT/510 Date 9/7/2007 VSWA Ordinance 1961 (COURT CASE) 
Al-Babar Center Park Road F-8 Markaz Islamabad. 051-2254933 ,33.7128988,73.03718839999999,"7 Park Rd, F-8 Markaz F 8 Markaz F-8, Islamabad, Islamabad Capital Territory, Pakistan","Society for the Advancement of Community, Health, Education & Training (SACHET) ",VSWA/ICT/306 Date 05.05.1999 VSWA Ordinance 1961 
14-D East Manzoor Plaza Fazal-e- Haq Road Blue Area Islamabad. ,33.778175,76.57617139999999,Jammu and Kashmir,Society for the Relief and Welfare of Occupied Jammu & Kashmir Refugees ,VSWA/ICT/143Date 26.12.1991 VSWA Ordinance 1961 
"Malpur Plaza, Simly Dam Road, Sary Chow, Phulgran, Bhara kahu, Islamabad. ",33.7379785,73.2041307,"Simly Dam Road, Phulgran, Islamabad, Islamabad Capital Territory, Pakistan",Society for Welfare Education and Transformation (SWET) ,VSWA/ICT/537Date 6/11/2008 VSWA Ordinance 1961 
"Plot No.13, Rafi Centre, Zero Point, G-7/1, Islamabad. ",33.6984058,73.0695952,"Street 28, G-7/1 G 7/1 G-7, Islamabad, Islamabad Capital Territory, Pakistan",South Asian Strategic Stability Institution (SASSI) ,VSWA/ICT/522Date 30-04-2008 VSWA Ordinance 1961 
"Kamal Atta Turik Avenue, G-5/2 Islamabad ",33.7294355,73.0859382,"2 Ataturk Ave, F-6/4 F 6/4 F-6, Islamabad, Islamabad Capital Territory, Pakistan","Staff Welfare Committee, Prime Minister Inspection Commission. ",VSWA/ICT/52 Date 23.1.1989 VSWA Ordinance 1961 
R Block Pak. Secretariate Islamabad. ,33.73609709999999,73.09235819999999,"Constitution Ave, Red Zone, Islamabad, Islamabad Capital Territory, Pakistan",Staff Welfare Society. ,VSWA/ICT/216Date 20.12.1993 VSWA Ordinance 1961 
"New Sohan, near Al-Saeed Jamia Mosque, Islamabad. ",33.6599409,73.0973396,"Sohan, Islamabad, Islamabad Capital Territory, Pakistan",Stephen Relief Organization ,VSWA/ICT/535Date 5/11/2008 VSWA Ordinance 1961 
"Main Murree Road, Bhara Kau, Islamabad. 051-2231207 ",33.7460296,73.19110440000001,"Murree Rd, Mohallah Chaudhrian Bhara Kahu, Kot Hathyal, Islamabad, Islamabad Capital Territory, Pakistan",Sunny Welfare Council ,"VSWA/ICT/490Date 17.06.2006, VSWA Ordinance 1961 "
"Office No.18, 64-W, Moscow Plaza, 3rd Floor, Blue Area, Islamabad. 0300-5312932 ",33.71208,73.06125,"Moscow Plaza, 64-E, Jinnah Ave, Block H, Blue Area, Islamabad, ICT, Pakistan",Swab ,VSWA/ICT/493Date 29-8-2006 VSWA Ordinance 1961 
Noor Pur Shahan Muslim Colony Bari Imam Islamabad. ,33.737029,73.1098806,"Muslim Colony Nurpur Shahan, Islamabad, Islamabad Capital Territory, Pakistan",Tahafaz Haqooq Khawateen Welfare Society. ,VSWA/ICT/296Date 7.1.1999 VSWA Ordinance 1961 
Shop No.1 Block 3-D G-7 Markaz Islamabad. ,33.6844202,73.04788479999999,"Islamabad, Islamabad Capital Territory, Pakistan",Tajar Welfare Association. ,VSWA/ICT/316Date 30.10.1999 VSWA Ordinance 1961 
H.No.15 St.15 F-8/3 Islamabad. ,33.7166373,73.0420036,"F-8/3 F 8/3 F-8, Islamabad, Islamabad Capital Territory, Pakistan",Tameer-e-Millat Foundation. ,VSWA/ICT/312Date 19.10.1999 VSWA Ordinance 1961 
"Near PSO Petrol Pump, Murree Road Bhara kahu, Islamabad. ",33.7373874,73.1746256,"Bhara Kahu, Kot Hathyal, Islamabad, Islamabad Capital Territory, Pakistan",Tanzeem-e-Falah-e-Insaniat. ,VSWA/ICT/178Date 2.12.1992 VSWA Ordinance 1961 
"70-W Al-Malik Center Blue Area, Islamabad Ph: 2762-37-38 ",33.7172931,73.07078,"Blue Area, Islamabad, Islamabad Capital Territory, Pakistan",Tanzeem-ul-Awan Pakistan ,VSWA/ICT/7 Date 12.2.1986 VSWA Ordinance 1961 
"Mango Town Grid Station Road, Bharakau Islamabad ",33.6844202,73.04788479999999,"Islamabad, Islamabad Capital Territory, Pakistan",Tayyub Welfare Society ,VSWA/ICT/341Date 14.4.2001 VSWA Ordinance 1961 
"Near F-G. Boys High School, Tarlai, Islamabad. ",33.6910643,73.1158847,"Rawal Dam Rd, Rawal Dam Colony Islamabad, Islamabad Capital Territory, Pakistan",The Castle of Ease ,VSWA/ICT/457Date 6.12.2004 VSWA Ordinance 1961 
"Main Sohan Road, Catalyst Building Sohan Village, Islamabad. 0333- 5156483 ",33.6602568,73.0974024,"Sohan Rd, Islamabad, Islamabad Capital Territory, Pakistan",The Catalyst ,"VSWA/ICT/471 Date 11.06.2005, VSWA Ordinance 1961 "
"Flat No:12-A, Block-12-C, F-7 Markaz, Jinnah Supper, Islamabad. ",33.6844202,73.04788479999999,"Islamabad, Islamabad Capital Territory, Pakistan",The Tulip Welfare Society. ,VSWA/ICT/423Date 24.10.2003 VSWA Ordinance 1961 
Near Darbar Chan Pir Badshah Pindorian Link Road Khanna Dak Islamabad. ,33.6844202,73.04788479999999,"Islamabad, Islamabad Capital Territory, Pakistan",Tullo Foundation ,VSWA/ICT/399Date 10.9.2002 VSWA Ordinance 1961 
"PEC Building, Ataturk Avenue, G-5/2, Islamabad. 051-4432517 ",33.7240072,73.09307609999999,"Ataturk Avenue، G-5, Islamabad, Islamabad Capital Territory, Pakistan",Al-Noor Welfare Foundation ,"VSWA/ICT/271, Date 15.5.1997, VSWA Ordinance 1961 "
Wholesale Fruit Market I-11 Islamabad 051-4445798 ,33.6374678,73.0288393,"I-11/4 I 11/4 I-11, Islamabad, Islamabad Capital Territory, Pakistan",Flahi Anjuman Wholesale Fruit Merchant. ,"VSWA/ICT/137, Date 26.11.1991 VSWA Ordinance 1961 "
Kot Hathial Shumali B.Kau Ibd. ,33.74618,73.17463,ICT، Pakistan,Human Welfare & Development Society ,"VSWA/ICT/256, Date 10.04.1996, VSWA Ordinance 1961 "
"Office No.9, Top Floor, Food Market, Near Al-Habib Masjid G-7/3-2, Ibd ",33.7126477,73.0715178,"G-7/3 G 7/3 G-7, Islamabad, Islamabad Capital Territory, Pakistan",National Youth Welfare Association. ,VSWA/ICT/134 Date 11.11.1991 VSWA Ordinance 1961 
H.No.7 St. 50 F-8/4 Islamabad. ,33.708912,73.0449551,"F-8/4 F 8/4 F-8, Islamabad, Islamabad Capital Territory, Pakistan",Parent Teachers Association of F.G. Special Education School for Mentally Retarbed Phase-I Ibne-Seena Academy ,VSWA/ICT/37Date 17.10.1988 VSWA Ordinance 1961 
"H.No.25 St.56, F-6/4, Islamabad Ph:822980 ",33.7278746,73.0833224,"F-6/4 F 6/4 F-6, Islamabad, Islamabad Capital Territory, Pakistan",Rural Environmental & Afforestation Development Society of Pakistan (READS) ,VSWA/ICT/196Date 7.3.1993 VSWA Ordinance 1961 
"Ibd Stock Exchange Building, 101-E, Fazal-e-Haq Road, Blue Area, Ibd. ",33.7172931,73.07078,"Blue Area, Islamabad, Islamabad Capital Territory, Pakistan",SAF ,VSWA/ICT/496Date 9/12/2006 VSWA Ordinance 1961 
No.2-B Junaid Plaza Jinah Avenue Blue Area Islamabad. ,33.71193360000001,73.0611708,"Junaid Plaza, Jinnah Ave, Block H, Blue Area, G 7/2 Blue Area, Islamabad, Islamabad Capital Territory 44000, Pakistan",Saviour Welfare Organization. ,VSWA/ICT/370Date 28.2.2002 VSWA Ordinance 1961 
